{"type": "FeatureCollection", "features": [{"type": "Feature", "geometry": {"coordinates": [[[2.3007698833739174, 48.75448744175871], [2.3594989994122932, 48.72957855791586], [2.3669088903841873, 48.72845779957597]], [[2.369350558863851, 48.72892045130042], [2.359539564659886, 48.729596764612964], [2.300756402160653, 48.75447836844632]]], "type": "MultiLineString"}, "properties": {"route_id": "IDFM:C01388", "route_short_name": "ORLYVAL", "route_long_name": "ORLYVAL", "route_type": "Tram", "route_color": "5EC5ED", "route_url": null, "id_ilico": "C01388", "operatorname": "RATP", "networkname": null, "url": "https://www.ratp.fr/sites/default/files/lines-assets/plan-de-ligne/metro/plan-de-ligne_metro_ligne-orv.pdf", "long_name_first": "O", "geo_point_2d": {"lon": 2.334177888695537, "lat": 48.740495470700175}}}, {"type": "Feature", "geometry": {"coordinates": [[[2.357265622467154, 48.9298566726865], [2.352816399576181, 48.93203598815413], [2.34786192297457, 48.93529153276368], [2.3452545555086055, 48.93964784415011], [2.347405183595505, 48.94558583371818], [2.342590162100173, 48.94956130812369], [2.3435329780932856, 48.95274990486579], [2.343155430985437, 48.95669563749724], [2.341975216299932, 48.95931503044353]], [[2.2953781736331234, 48.95541719963809], [2.3018601844901805, 48.95573389275546], [2.3079274852128253, 48.95540935753423], [2.3114442040809027, 48.95588823426514], [2.315317073249133, 48.953176619462994], [2.321306841575554, 48.95143910339942], [2.3298359704014917, 48.949688531186794], [2.33913133956827, 48.947761723568384], [2.3472549019997713, 48.94559400828969], [2.3451445619236657, 48.93971019310891], [2.3477395329422346, 48.93525489527047], [2.3526942374838447, 48.93198137103362], [2.3572533079864235, 48.92974869176176]], [[2.357265622467154, 48.9298566726865], [2.352816399576181, 48.93203598815413], [2.34786192297457, 48.93529153276368], [2.3452545555086055, 48.93964784415011], [2.347405183595505, 48.94558583371818], [2.339143963475557, 48.94784272812051], [2.3280277652566626, 48.95014603352277], [2.320224007226486, 48.951756707991194], [2.315356850330502, 48.95326677412415], [2.3115254158835534, 48.95594265700801], [2.3077369246178736, 48.95536329374528], [2.301872390098702, 48.95584187674177], [2.2953781736331234, 48.95541719963809]], [[2.341975216299932, 48.95931503044353], [2.3431292576788487, 48.95660556715761], [2.343396442304727, 48.95274915719777], [2.3424532936156943, 48.94958753577555], [2.3472549019997713, 48.94559400828969], [2.3451445619236657, 48.93971019310891], [2.3477395329422346, 48.93525489527047], [2.3526942374838447, 48.93198137103362], [2.3572533079864235, 48.92974869176176]], [[2.3472549019997713, 48.94559400828969], [2.3451445619236657, 48.93971019310891], [2.3477395329422346, 48.93525489527047], [2.3526942374838447, 48.93198137103362], [2.3572533079864235, 48.92974869176176]], [[2.357265622467154, 48.9298566726865], [2.352816399576181, 48.93203598815413], [2.34786192297457, 48.93529153276368], [2.3452545555086055, 48.93964784415011], [2.347405183595505, 48.94558583371818], [2.342590162100173, 48.94956130812369], [2.3435329780932856, 48.95274990486579], [2.343155430985437, 48.95669563749724], [2.342071486091147, 48.95926160265617]], [[2.357265622467154, 48.9298566726865], [2.352816399576181, 48.93203598815413], [2.34786192297457, 48.93529153276368], [2.3452545555086055, 48.93964784415011], [2.347405183595505, 48.94558583371818], [2.339143963475557, 48.94784272812051], [2.3280277652566626, 48.95014603352277], [2.320224007226486, 48.951756707991194], [2.315356850330502, 48.95326677412415], [2.3115254158835534, 48.95594265700801], [2.3077369246178736, 48.95536329374528], [2.301872390098702, 48.95584187674177], [2.2953639101802024, 48.9554620795775]], [[2.339143963475557, 48.94784272812051], [2.3280277652566626, 48.95014603352277], [2.320224007226486, 48.951756707991194], [2.315356850330502, 48.95326677412415], [2.3115254158835534, 48.95594265700801], [2.3077369246178736, 48.95536329374528], [2.301872390098702, 48.95584187674177], [2.2953639101802024, 48.9554620795775]], [[2.342071486091147, 48.95926160265617], [2.3431292576788487, 48.95660556715761], [2.343396442304727, 48.95274915719777], [2.3424532936156943, 48.94958753577555], [2.3472549019997713, 48.94559400828969], [2.3451445619236657, 48.93971019310891], [2.3477395329422346, 48.93525489527047], [2.3526942374838447, 48.93198137103362], [2.3572533079864235, 48.92974869176176]], [[2.2953639101802024, 48.9554620795775], [2.3018601844901805, 48.95573389275546], [2.3079274852128253, 48.95540935753423], [2.3114442040809027, 48.95588823426514], [2.315317073249133, 48.953176619462994], [2.321306841575554, 48.95143910339942], [2.3298359704014917, 48.949688531186794], [2.33913133956827, 48.947761723568384], [2.3472549019997713, 48.94559400828969], [2.3451445619236657, 48.93971019310891], [2.3477395329422346, 48.93525489527047], [2.3526942374838447, 48.93198137103362], [2.3572533079864235, 48.92974869176176]], [[2.3472549019997713, 48.94559400828969], [2.3451445619236657, 48.93971019310891], [2.3477395329422346, 48.93525489527047], [2.3526942374838447, 48.93198137103362], [2.357265622467154, 48.9298566726865]], [[2.339143963475557, 48.94784272812051], [2.3280277652566626, 48.95014603352277], [2.320224007226486, 48.951756707991194], [2.315356850330502, 48.95326677412415], [2.3115254158835534, 48.95594265700801], [2.3077369246178736, 48.95536329374528], [2.301872390098702, 48.95584187674177], [2.2953781736331234, 48.95541719963809]]], "type": "MultiLineString"}, "properties": {"route_id": "IDFM:C01795", "route_short_name": "T8", "route_long_name": "T8", "route_type": "Tram", "route_color": "837902", "route_url": null, "id_ilico": "C01795", "operatorname": "RATP", "networkname": null, "url": "https://www.ratp.fr/sites/default/files/lines-assets/plan-de-ligne/tram/plan-de-ligne_tram_ligne-t8.pdf", "long_name_first": "T", "geo_point_2d": {"lon": 2.333720713759117, "lat": 48.94613030569486}}}, {"type": "Feature", "geometry": {"coordinates": [[[2.3699562338281868, 48.8218601257817], [2.3639343743867536, 48.81976866806797], [2.3600205548381514, 48.819064255539985], [2.3500574676519284, 48.82073732671356], [2.34571416711844, 48.819535450932925], [2.338115658368057, 48.820509933065615], [2.3333899397534115, 48.82154495165109], [2.324922053842732, 48.82335017119638], [2.3188287710972655, 48.824763620104996], [2.3133644199139147, 48.82597351412929], [2.3066838708072592, 48.827454921561646], [2.300850585299838, 48.82870707372911], [2.295015438602318, 48.83007584981405], [2.2880864296816648, 48.832714950896516], [2.283483092163333, 48.834603133856895], [2.277355761841914, 48.83632904720439], [2.271323138312333, 48.83807321092004]], [[2.271174035081847, 48.838018340072864], [2.2788605111327747, 48.835888441280396], [2.284538816875225, 48.83411479687378], [2.2880197933556627, 48.83260662902873], [2.29645235862634, 48.82958965330787], [2.3006879774102935, 48.82864316650426], [2.3066440851164933, 48.827373746784275], [2.313338363709676, 48.82588342655846], [2.318884661036553, 48.824656012842546], [2.326180409502787, 48.822943553337296], [2.333240818516532, 48.82149015737766], [2.339141182523244, 48.820191827892465], [2.345797007642135, 48.81944596603347], [2.3517178700368593, 48.82083627815218], [2.36015773399431, 48.81898404542081], [2.3640167452454044, 48.81971514342374], [2.3701746864334314, 48.821816307706], [2.377744762249231, 48.82432922348724], [2.381149825464056, 48.825489098203334], [2.3934750366791087, 48.830336895691396], [2.398455585755042, 48.831971917767255], [2.407264913210672, 48.83597310359848], [2.408937367696815, 48.83986661994873], [2.410161562816697, 48.843658959618125], [2.409566358514211, 48.846884708674125]], [[2.271323138312333, 48.83807321092004], [2.2788605111327747, 48.835888441280396], [2.284538816875225, 48.83411479687378], [2.2880197933556627, 48.83260662902873], [2.29645235862634, 48.82958965330787], [2.3006879774102935, 48.82864316650426], [2.3066440851164933, 48.827373746784275], [2.313338363709676, 48.82588342655846], [2.318884661036553, 48.824656012842546], [2.326180409502787, 48.822943553337296], [2.333240818516532, 48.82149015737766], [2.339141182523244, 48.820191827892465], [2.345797007642135, 48.81944596603347], [2.3517178700368593, 48.82083627815218], [2.36015773399431, 48.81898404542081], [2.3640167452454044, 48.81971514342374], [2.3701746864334314, 48.821816307706], [2.377744762249231, 48.82432922348724], [2.381149825464056, 48.825489098203334], [2.3934750366791087, 48.830336895691396], [2.398455585755042, 48.831971917767255], [2.407264913210672, 48.83597310359848], [2.408937367696815, 48.83986661994873], [2.410161562816697, 48.843658959618125], [2.409566358514211, 48.846884708674125]], [[2.4095379858241412, 48.8469834975727], [2.4100250065154265, 48.84368526694643], [2.408814546821016, 48.83988400020971], [2.4058985151305987, 48.83512991676044], [2.3982507364087526, 48.8320158556433], [2.39341950392133, 48.83042655091173], [2.3809038056961698, 48.82555977471331], [2.3775534381245933, 48.824382190272274], [2.3699562338281868, 48.8218601257817], [2.3639343743867536, 48.81976866806797], [2.3600205548381514, 48.819064255539985], [2.3500574676519284, 48.82073732671356], [2.34571416711844, 48.819535450932925], [2.338115658368057, 48.820509933065615], [2.3333899397534115, 48.82154495165109], [2.324922053842732, 48.82335017119638], [2.3188287710972655, 48.824763620104996], [2.3133644199139147, 48.82597351412929], [2.3066838708072592, 48.827454921561646], [2.300850585299838, 48.82870707372911], [2.295015438602318, 48.83007584981405], [2.2880864296816648, 48.832714950896516], [2.283483092163333, 48.834603133856895], [2.277355761841914, 48.83632904720439], [2.271174035081847, 48.838018340072864]], [[2.4095379858241412, 48.8469834975727], [2.4100250065154265, 48.84368526694643], [2.408814546821016, 48.83988400020971], [2.4058985151305987, 48.83512991676044], [2.3982507364087526, 48.8320158556433], [2.39341950392133, 48.83042655091173], [2.3809038056961698, 48.82555977471331], [2.3775534381245933, 48.824382190272274], [2.3699562338281868, 48.8218601257817], [2.3639343743867536, 48.81976866806797], [2.3600205548381514, 48.819064255539985], [2.3500574676519284, 48.82073732671356], [2.34571416711844, 48.819535450932925], [2.338115658368057, 48.820509933065615], [2.3333899397534115, 48.82154495165109], [2.324922053842732, 48.82335017119638], [2.3188287710972655, 48.824763620104996], [2.3133644199139147, 48.82597351412929], [2.3066838708072592, 48.827454921561646], [2.300850585299838, 48.82870707372911], [2.295015438602318, 48.83007584981405], [2.2880864296816648, 48.832714950896516], [2.283483092163333, 48.834603133856895], [2.277355761841914, 48.83632904720439], [2.271323138312333, 48.83807321092004]], [[2.3699562338281868, 48.8218601257817], [2.3639343743867536, 48.81976866806797], [2.3600205548381514, 48.819064255539985], [2.3500574676519284, 48.82073732671356], [2.34571416711844, 48.819535450932925], [2.338115658368057, 48.820509933065615], [2.3333899397534115, 48.82154495165109], [2.324922053842732, 48.82335017119638], [2.3188287710972655, 48.824763620104996], [2.3133644199139147, 48.82597351412929], [2.3066838708072592, 48.827454921561646], [2.300850585299838, 48.82870707372911], [2.295015438602318, 48.83007584981405], [2.2880864296816648, 48.832714950896516], [2.283483092163333, 48.834603133856895], [2.277355761841914, 48.83632904720439], [2.271174035081847, 48.838018340072864]]], "type": "MultiLineString"}, "properties": {"route_id": "IDFM:C01391", "route_short_name": "T3a", "route_long_name": "T3a", "route_type": "Tram", "route_color": "FF7E2E", "route_url": null, "id_ilico": "C01391", "operatorname": "RATP", "networkname": null, "url": "https://www.ratp.fr/sites/default/files/lines-assets/plan-de-ligne/tram/plan-de-ligne_tram_ligne-t3a.pdf", "long_name_first": "T", "geo_point_2d": {"lon": 2.3387038490653285, "lat": 48.82722773546299}}}, {"type": "Feature", "geometry": {"coordinates": [[[2.4603904119265176, 48.895904382025236], [2.4657297624164425, 48.90060472033437], [2.4699983661657465, 48.90471551700984], [2.4605373604396763, 48.90673268090695], [2.454386644826771, 48.90784693451178], [2.4499527714432054, 48.906558641642015], [2.4438136690531236, 48.906566265422576], [2.438680066806232, 48.90694700480007], [2.437545452403373, 48.90968455192708], [2.4354659292480028, 48.91273238724237], [2.4313302569825184, 48.91412472437995], [2.425021005984215, 48.91586622459615], [2.417726617499685, 48.917809446000085], [2.413862964699738, 48.91920249956208], [2.4106374774533097, 48.920859363612415], [2.4066174610492608, 48.92276400906354], [2.40209533755292, 48.924396226112556], [2.392206222540037, 48.92747600507261], [2.3847928898772652, 48.930001149010536], [2.3781656055234563, 48.93179249812244], [2.371141947078881, 48.93359039383934], [2.3640523240300038, 48.93627781965556], [2.3608224243426954, 48.93807719226314], [2.3558602176005095, 48.93864415439375], [2.350332065279392, 48.93751719094905], [2.3440852756563513, 48.93602632476961]], [[2.3440852756563513, 48.93602632476961], [2.350468785750953, 48.93749994624904], [2.35587486964062, 48.93856329762427], [2.360754728105203, 48.938031867062115], [2.3633667784558563, 48.936525979859766], [2.3710877875580523, 48.93355413819415], [2.378194084027151, 48.93169372430304], [2.384711641960931, 48.92994677460666], [2.392179348716743, 48.92743989718759], [2.4020687684654924, 48.92433314315498], [2.406618691605552, 48.922656100102074], [2.410502145012231, 48.92075977558461], [2.413808992990479, 48.91914827784848], [2.417672743836023, 48.91774623349357], [2.424994512820818, 48.91579415374291], [2.431262727064243, 48.91406145300713], [2.435412039295621, 48.912669182419], [2.4374365075390196, 48.909666054339084], [2.4385847689545503, 48.90692857213566], [2.443814245584328, 48.90651230995499], [2.449967268275957, 48.90647777103686], [2.4543327369587247, 48.90778373791807], [2.4605108227517474, 48.90666061731061], [2.4699167940313758, 48.90468817698156], [2.465066204572745, 48.90013411943619], [2.4602943808263733, 48.89595790787393]], [[2.4603904119265176, 48.895904382025236], [2.4657297624164425, 48.90060472033437], [2.4699983661657465, 48.90471551700984], [2.4605373604396763, 48.90673268090695], [2.454386644826771, 48.90784693451178], [2.4499527714432054, 48.906558641642015], [2.4438136690531236, 48.906566265422576], [2.438680066806232, 48.90694700480007], [2.437545452403373, 48.90968455192708], [2.4354659292480028, 48.91273238724237], [2.4313302569825184, 48.91412472437995], [2.425021005984215, 48.91586622459615], [2.417726617499685, 48.917809446000085], [2.413862964699738, 48.91920249956208], [2.4106374774533097, 48.920859363612415], [2.4066174610492608, 48.92276400906354], [2.40209533755292, 48.924396226112556], [2.392206222540037, 48.92747600507261], [2.3847928898772652, 48.930001149010536], [2.3781656055234563, 48.93179249812244], [2.371141947078881, 48.93359039383934], [2.3640523240300038, 48.93627781965556], [2.3608224243426954, 48.93807719226314], [2.3558602176005095, 48.93864415439375], [2.350332065279392, 48.93751719094905], [2.3440867496171425, 48.9359094255586]], [[2.3440867496171425, 48.9359094255586], [2.350468785750953, 48.93749994624904], [2.35587486964062, 48.93856329762427], [2.360754728105203, 48.938031867062115], [2.3633667784558563, 48.936525979859766], [2.3710877875580523, 48.93355413819415], [2.378194084027151, 48.93169372430304], [2.384711641960931, 48.92994677460666], [2.392179348716743, 48.92743989718759], [2.4020687684654924, 48.92433314315498], [2.406618691605552, 48.922656100102074], [2.410502145012231, 48.92075977558461], [2.413808992990479, 48.91914827784848], [2.417672743836023, 48.91774623349357], [2.424994512820818, 48.91579415374291], [2.431262727064243, 48.91406145300713], [2.435412039295621, 48.912669182419], [2.4374365075390196, 48.909666054339084], [2.4385847689545503, 48.90692857213566], [2.443814245584328, 48.90651230995499], [2.449967268275957, 48.90647777103686], [2.4543327369587247, 48.90778373791807], [2.4605108227517474, 48.90666061731061], [2.4699167940313758, 48.90468817698156], [2.465066204572745, 48.90013411943619], [2.4602943808263733, 48.89595790787393]], [[2.4543327369587247, 48.90778373791807], [2.4605108227517474, 48.90666061731061], [2.4699167940313758, 48.90468817698156], [2.465066204572745, 48.90013411943619], [2.4602943808263733, 48.89595790787393]], [[2.449967268275957, 48.90647777103686], [2.4543327369587247, 48.90778373791807], [2.4605108227517474, 48.90666061731061], [2.4699167940313758, 48.90468817698156], [2.465066204572745, 48.90013411943619], [2.4602943808263733, 48.89595790787393]], [[2.4603904119265176, 48.895904382025236], [2.4657297624164425, 48.90060472033437], [2.4699983661657465, 48.90471551700984], [2.4605373604396763, 48.90673268090695], [2.454386644826771, 48.90784693451178], [2.4499527714432054, 48.906558641642015]], [[2.4499527714432054, 48.906558641642015], [2.4438136690531236, 48.906566265422576], [2.438680066806232, 48.90694700480007], [2.437545452403373, 48.90968455192708], [2.4354659292480028, 48.91273238724237], [2.4313302569825184, 48.91412472437995], [2.425021005984215, 48.91586622459615], [2.417726617499685, 48.917809446000085], [2.413862964699738, 48.91920249956208], [2.4106374774533097, 48.920859363612415], [2.4066174610492608, 48.92276400906354], [2.40209533755292, 48.924396226112556], [2.392206222540037, 48.92747600507261], [2.3847928898772652, 48.930001149010536], [2.3781656055234563, 48.93179249812244], [2.371141947078881, 48.93359039383934], [2.3640523240300038, 48.93627781965556], [2.3608224243426954, 48.93807719226314], [2.3558602176005095, 48.93864415439375], [2.350332065279392, 48.93751719094905], [2.3440852756563513, 48.93602632476961]], [[2.410502145012231, 48.92075977558461], [2.413808992990479, 48.91914827784848], [2.417672743836023, 48.91774623349357], [2.424994512820818, 48.91579415374291], [2.431262727064243, 48.91406145300713], [2.435412039295621, 48.912669182419], [2.4374365075390196, 48.909666054339084], [2.4385847689545503, 48.90692857213566], [2.443814245584328, 48.90651230995499], [2.449967268275957, 48.90647777103686], [2.4543327369587247, 48.90778373791807], [2.4605108227517474, 48.90666061731061], [2.4699167940313758, 48.90468817698156], [2.465066204572745, 48.90013411943619], [2.4602943808263733, 48.89595790787393]], [[2.4499527714432054, 48.906558641642015], [2.4438136690531236, 48.906566265422576], [2.438680066806232, 48.90694700480007], [2.437545452403373, 48.90968455192708], [2.4354659292480028, 48.91273238724237], [2.4313302569825184, 48.91412472437995], [2.425021005984215, 48.91586622459615], [2.417726617499685, 48.917809446000085], [2.413862964699738, 48.91920249956208], [2.4106374774533097, 48.920859363612415]], [[2.435412039295621, 48.912669182419], [2.4313302569825184, 48.91412472437995], [2.425021005984215, 48.91586622459615], [2.417726617499685, 48.917809446000085], [2.413862964699738, 48.91920249956208], [2.4106374774533097, 48.920859363612415], [2.4066174610492608, 48.92276400906354], [2.40209533755292, 48.924396226112556], [2.392206222540037, 48.92747600507261], [2.3847928898772652, 48.930001149010536], [2.3781656055234563, 48.93179249812244], [2.371141947078881, 48.93359039383934], [2.3640523240300038, 48.93627781965556], [2.3608224243426954, 48.93807719226314], [2.3558602176005095, 48.93864415439375], [2.350332065279392, 48.93751719094905], [2.3440852756563513, 48.93602632476961]], [[2.3440852756563513, 48.93602632476961], [2.350468785750953, 48.93749994624904], [2.35587486964062, 48.93856329762427], [2.360754728105203, 48.938031867062115], [2.3633667784558563, 48.936525979859766], [2.3710877875580523, 48.93355413819415], [2.378194084027151, 48.93169372430304], [2.384711641960931, 48.92994677460666], [2.392179348716743, 48.92743989718759], [2.4020687684654924, 48.92433314315498], [2.406618691605552, 48.922656100102074], [2.410502145012231, 48.92075977558461], [2.413808992990479, 48.91914827784848], [2.417672743836023, 48.91774623349357], [2.424994512820818, 48.91579415374291], [2.431262727064243, 48.91406145300713], [2.435412039295621, 48.912669182419], [2.4374365075390196, 48.909666054339084], [2.4385847689545503, 48.90692857213566], [2.443814245584328, 48.90651230995499], [2.449967268275957, 48.90647777103686]], [[2.3440852756563513, 48.93602632476961], [2.350468785750953, 48.93749994624904], [2.35587486964062, 48.93856329762427], [2.360754728105203, 48.938031867062115], [2.3633667784558563, 48.936525979859766], [2.3710877875580523, 48.93355413819415], [2.378194084027151, 48.93169372430304], [2.384711641960931, 48.92994677460666], [2.392179348716743, 48.92743989718759], [2.4020687684654924, 48.92433314315498], [2.406618691605552, 48.922656100102074], [2.410502145012231, 48.92075977558461], [2.413808992990479, 48.91914827784848], [2.417672743836023, 48.91774623349357], [2.424994512820818, 48.91579415374291], [2.431262727064243, 48.91406145300713], [2.435412039295621, 48.912669182419]]], "type": "MultiLineString"}, "properties": {"route_id": "IDFM:C01389", "route_short_name": "T1", "route_long_name": "T1", "route_type": "Tram", "route_color": "003CA6", "route_url": null, "id_ilico": "C01389", "operatorname": "RATP", "networkname": null, "url": "https://www.ratp.fr/sites/default/files/lines-assets/plan-de-ligne/tram/plan-de-ligne_tram_ligne-t1.1587654231.pdf", "long_name_first": "T", "geo_point_2d": {"lon": 2.4128779666310263, "lat": 48.91959517101098}}}, {"type": "Feature", "geometry": {"coordinates": [[[2.252610339911434, 48.79004695969374], [2.2530593522498457, 48.787207613990226], [2.253111785181918, 48.78259392495242], [2.2518454316352314, 48.7797888012945], [2.249915939450735, 48.77673665004125], [2.249641226496323, 48.76934162518396], [2.254854314606935, 48.766361162273036], [2.2597107233696145, 48.76546494419459], [2.2660757711711805, 48.76466775195366], [2.272769126816137, 48.76372831132048], [2.280674094745584, 48.762714850626836], [2.2904328696161556, 48.76141508287884], [2.3029180081362925, 48.76272082680263]], [[2.252610339911434, 48.79004695969374], [2.2530593522498457, 48.787207613990226], [2.253111785181918, 48.78259392495242], [2.2518454316352314, 48.7797888012945], [2.249915939450735, 48.77673665004125], [2.249641226496323, 48.76934162518396], [2.254854314606935, 48.766361162273036], [2.2597107233696145, 48.76546494419459], [2.2660757711711805, 48.76466775195366], [2.272769126816137, 48.76372831132048], [2.280674094745584, 48.762714850626836], [2.2904328696161556, 48.76141508287884], [2.302959299938301, 48.76268509056283]], [[2.252610339911434, 48.79004695969374], [2.2530593522498457, 48.787207613990226], [2.253111785181918, 48.78259392495242], [2.2518454316352314, 48.7797888012945], [2.249915939450735, 48.77673665004125]], [[2.249641226496323, 48.76934162518396], [2.254854314606935, 48.766361162273036], [2.2597107233696145, 48.76546494419459], [2.2660757711711805, 48.76466775195366], [2.272769126816137, 48.76372831132048], [2.280674094745584, 48.762714850626836], [2.2904328696161556, 48.76141508287884], [2.302959299938301, 48.76268509056283]], [[2.302959299938301, 48.76268509056283], [2.290459587558967, 48.76145121893071], [2.2807006826726486, 48.76275998240396], [2.272794831394837, 48.76383639978567], [2.266088616748746, 48.764721796864], [2.2597634832013664, 48.765582197472746], [2.254908219839857, 48.76639747585887], [2.249694872613051, 48.76939592802492], [2.250066396091131, 48.77668362906781], [2.251955070610537, 48.779735522436795], [2.253248517857635, 48.78254980857258], [2.2532225449568815, 48.78721762813691], [2.252773412609051, 48.79006596776754]], [[2.302959299938301, 48.76268509056283], [2.290459587558967, 48.76145121893071], [2.2807006826726486, 48.76275998240396], [2.272794831394837, 48.76383639978567], [2.266088616748746, 48.764721796864], [2.2597634832013664, 48.765582197472746], [2.254908219839857, 48.76639747585887], [2.249694872613051, 48.76939592802492]], [[2.250066396091131, 48.77668362906781], [2.251955070610537, 48.779735522436795], [2.253248517857635, 48.78254980857258], [2.2532225449568815, 48.78721762813691], [2.252773412609051, 48.79006596776754]], [[2.3029180081362925, 48.76272082680263], [2.290459587558967, 48.76145121893071], [2.2807006826726486, 48.76275998240396], [2.272794831394837, 48.76383639978567], [2.266088616748746, 48.764721796864], [2.2597634832013664, 48.765582197472746], [2.254908219839857, 48.76639747585887], [2.249694872613051, 48.76939592802492], [2.250066396091131, 48.77668362906781], [2.251955070610537, 48.779735522436795], [2.253248517857635, 48.78254980857258], [2.2532225449568815, 48.78721762813691], [2.252773412609051, 48.79006596776754]], [[2.249641226496323, 48.76934162518396], [2.254854314606935, 48.766361162273036], [2.2597107233696145, 48.76546494419459], [2.2660757711711805, 48.76466775195366], [2.272769126816137, 48.76372831132048], [2.280674094745584, 48.762714850626836], [2.2904328696161556, 48.76141508287884], [2.3029180081362925, 48.76272082680263]]], "type": "MultiLineString"}, "properties": {"route_id": "IDFM:C02528", "route_short_name": "T10", "route_long_name": "T10", "route_type": "Tram", "route_color": "6E6E00", "route_url": null, "id_ilico": "C02528", "operatorname": "RD Bièvre", "networkname": "Bièvre", "url": "https://ilico.iledefrance-mobilites.fr/uploads/plans/64d4e58a103b4_647f14e963d0d_Schema-de-ligne-T10-PLT10_V3.pdf", "long_name_first": "T", "geo_point_2d": {"lon": 2.270352767995357, "lat": 48.76771972284881}}}, {"type": "Feature", "geometry": {"coordinates": [[[2.274893044078303, 48.87037296112415], [2.2781906609693316, 48.87442196109367], [2.2840189957912593, 48.87791043686484], [2.285596649004745, 48.8811844628922], [2.288196318046833, 48.88352922906449], [2.2923079803797872, 48.886017778774274], [2.296378369884052, 48.887552645935415], [2.303128593874889, 48.889615615175025], [2.314314444573612, 48.89459051151927], [2.3188481036182034, 48.89626214519957], [2.324915588556141, 48.89748360561324], [2.3298516567126035, 48.897610253568644], [2.3381973060628405, 48.89777357433254], [2.3451100992447147, 48.89799143877971], [2.351721766125652, 48.89829720594876], [2.358459478922367, 48.89834248111346], [2.3636279086822087, 48.89844200099648], [2.3689193307790544, 48.89852395957642], [2.3733919699097723, 48.89750423836571], [2.3804708399279226, 48.89867420358864], [2.3865009944320703, 48.89741922608639], [2.3950811622314045, 48.89736394796987], [2.397644770882582, 48.89388752639321], [2.3955871164568054, 48.889029830075266]], [[2.4096294961774425, 48.847325703571016], [2.410819038635312, 48.85299747973053], [2.4097457105651214, 48.858721027828636], [2.408875014954352, 48.86338431754405], [2.4090192175057994, 48.86749500857692], [2.408738694818512, 48.87179244694016], [2.407046599200534, 48.876721408971456], [2.4012745460995935, 48.87949858689952], [2.396819678860734, 48.88505204731925], [2.3957504466943305, 48.88905763403042], [2.397794479232845, 48.89391525883582], [2.3950936519984656, 48.89746293559589], [2.3864592292211495, 48.89749095730542], [2.380442597848103, 48.898754995770666], [2.373377140155362, 48.89760308551223], [2.368890634791775, 48.89864071936045], [2.363613279976056, 48.8985228616988], [2.3583900631505386, 48.898441034062756], [2.3516934796371, 48.89837799137393], [2.3450545241806258, 48.89807207348968], [2.3381825237286495, 48.897863424530414], [2.3295638459854024, 48.89771656108591], [2.3248455273300745, 48.897627101917976], [2.318697253843428, 48.89632423964413], [2.3141767587052646, 48.894688648692544], [2.3030324129038307, 48.88966901512059], [2.2968164352852605, 48.88742931300661], [2.291994963614582, 48.88597096158269], [2.288453177914627, 48.88369263626842], [2.285459684787077, 48.88122861239746], [2.2837326845388546, 48.87790872414125], [2.2780670919239996, 48.87448416999379], [2.2746344140069596, 48.87034441363534]], [[2.4096294961774425, 48.847325703571016], [2.410819038635312, 48.85299747973053], [2.4097457105651214, 48.858721027828636], [2.408875014954352, 48.86338431754405], [2.4090192175057994, 48.86749500857692], [2.408738694818512, 48.87179244694016], [2.407046599200534, 48.876721408971456], [2.4012745460995935, 48.87949858689952], [2.396819678860734, 48.88505204731925], [2.3957504466943305, 48.88905763403042]], [[2.274893044078303, 48.87037296112415], [2.2781906609693316, 48.87442196109367], [2.2840189957912593, 48.87791043686484], [2.285596649004745, 48.8811844628922], [2.288196318046833, 48.88352922906449], [2.2923079803797872, 48.886017778774274], [2.296378369884052, 48.887552645935415], [2.303128593874889, 48.889615615175025], [2.314314444573612, 48.89459051151927], [2.3188481036182034, 48.89626214519957], [2.324915588556141, 48.89748360561324], [2.3298516567126035, 48.897610253568644], [2.3381973060628405, 48.89777357433254], [2.3451100992447147, 48.89799143877971], [2.351721766125652, 48.89829720594876], [2.358459478922367, 48.89834248111346], [2.3636279086822087, 48.89844200099648], [2.3689193307790544, 48.89852395957642], [2.3733919699097723, 48.89750423836571], [2.3804708399279226, 48.89867420358864], [2.3865009944320703, 48.89741922608639], [2.3950811622314045, 48.89736394796987], [2.397644770882582, 48.89388752639321], [2.3955871164568054, 48.889029830075266], [2.3966836324049425, 48.88502438214547], [2.4011523530409966, 48.87945300932185], [2.406897140162137, 48.87667570207763], [2.408513529476805, 48.872411874653075], [2.4088693750122006, 48.86748527523941], [2.408765768865789, 48.86340176471023], [2.4096101336179307, 48.858657404919875], [2.4106692374948193, 48.85298774851907], [2.4096283755134005, 48.84742462692587]], [[2.303128593874889, 48.889615615175025], [2.314314444573612, 48.89459051151927], [2.3188481036182034, 48.89626214519957], [2.324915588556141, 48.89748360561324], [2.3298516567126035, 48.897610253568644], [2.3381973060628405, 48.89777357433254], [2.3451100992447147, 48.89799143877971], [2.351721766125652, 48.89829720594876], [2.358459478922367, 48.89834248111346], [2.3636279086822087, 48.89844200099648], [2.3689193307790544, 48.89852395957642], [2.3733919699097723, 48.89750423836571], [2.3804708399279226, 48.89867420358864], [2.3865009944320703, 48.89741922608639], [2.3950811622314045, 48.89736394796987], [2.397644770882582, 48.89388752639321], [2.3955871164568054, 48.889029830075266], [2.3966836324049425, 48.88502438214547], [2.4011523530409966, 48.87945300932185], [2.406897140162137, 48.87667570207763], [2.408513529476805, 48.872411874653075], [2.4088693750122006, 48.86748527523941], [2.408765768865789, 48.86340176471023], [2.4096101336179307, 48.858657404919875], [2.4106692374948193, 48.85298774851907], [2.4096283755134005, 48.84742462692587]], [[2.3955871164568054, 48.889029830075266], [2.3966836324049425, 48.88502438214547], [2.4011523530409966, 48.87945300932185], [2.406897140162137, 48.87667570207763], [2.408513529476805, 48.872411874653075], [2.4088693750122006, 48.86748527523941], [2.408765768865789, 48.86340176471023], [2.4096101336179307, 48.858657404919875], [2.4106692374948193, 48.85298774851907], [2.4096283755134005, 48.84742462692587]], [[2.274893044078303, 48.87037296112415], [2.2781906609693316, 48.87442196109367], [2.2840189957912593, 48.87791043686484], [2.285596649004745, 48.8811844628922], [2.288196318046833, 48.88352922906449], [2.2923079803797872, 48.886017778774274], [2.296378369884052, 48.887552645935415], [2.303128593874889, 48.889615615175025], [2.314314444573612, 48.89459051151927], [2.3188481036182034, 48.89626214519957], [2.324915588556141, 48.89748360561324], [2.3298516567126035, 48.897610253568644], [2.3381973060628405, 48.89777357433254], [2.3451100992447147, 48.89799143877971], [2.351721766125652, 48.89829720594876], [2.358459478922367, 48.89834248111346], [2.3636279086822087, 48.89844200099648], [2.3689193307790544, 48.89852395957642], [2.3733919699097723, 48.89750423836571], [2.3804708399279226, 48.89867420358864], [2.3865009944320703, 48.89741922608639], [2.3950811622314045, 48.89736394796987], [2.397644770882582, 48.89388752639321]], [[2.397794479232845, 48.89391525883582], [2.3950936519984656, 48.89746293559589], [2.3864592292211495, 48.89749095730542], [2.380442597848103, 48.898754995770666], [2.373377140155362, 48.89760308551223], [2.368890634791775, 48.89864071936045], [2.363613279976056, 48.8985228616988], [2.3583900631505386, 48.898441034062756]], [[2.397794479232845, 48.89391525883582], [2.3950936519984656, 48.89746293559589], [2.3864592292211495, 48.89749095730542], [2.380442597848103, 48.898754995770666], [2.373377140155362, 48.89760308551223], [2.368890634791775, 48.89864071936045], [2.363613279976056, 48.8985228616988], [2.3583900631505386, 48.898441034062756], [2.3516934796371, 48.89837799137393], [2.3450545241806258, 48.89807207348968], [2.3381825237286495, 48.897863424530414], [2.3295638459854024, 48.89771656108591], [2.3248455273300745, 48.897627101917976], [2.318697253843428, 48.89632423964413], [2.3141767587052646, 48.894688648692544], [2.3030324129038307, 48.88966901512059], [2.2968164352852605, 48.88742931300661], [2.291994963614582, 48.88597096158269], [2.288453177914627, 48.88369263626842], [2.285459684787077, 48.88122861239746], [2.2837326845388546, 48.87790872414125], [2.2780670919239996, 48.87448416999379], [2.274893044078303, 48.87037296112415]], [[2.397794479232845, 48.89391525883582], [2.3950936519984656, 48.89746293559589], [2.3864592292211495, 48.89749095730542], [2.380442597848103, 48.898754995770666], [2.373377140155362, 48.89760308551223], [2.368890634791775, 48.89864071936045], [2.363613279976056, 48.8985228616988], [2.3583900631505386, 48.898441034062756], [2.3516934796371, 48.89837799137393], [2.3450545241806258, 48.89807207348968], [2.3381825237286495, 48.897863424530414], [2.3295638459854024, 48.89771656108591], [2.3248455273300745, 48.897627101917976], [2.318697253843428, 48.89632423964413], [2.3141767587052646, 48.894688648692544], [2.3030324129038307, 48.88966901512059], [2.2968164352852605, 48.88742931300661], [2.291994963614582, 48.88597096158269], [2.288453177914627, 48.88369263626842], [2.285459684787077, 48.88122861239746], [2.2837326845388546, 48.87790872414125], [2.2780670919239996, 48.87448416999379], [2.2746344140069596, 48.87034441363534]], [[2.397794479232845, 48.89391525883582], [2.3950936519984656, 48.89746293559589], [2.3864592292211495, 48.89749095730542], [2.380442597848103, 48.898754995770666], [2.373377140155362, 48.89760308551223], [2.368890634791775, 48.89864071936045], [2.363613279976056, 48.8985228616988], [2.3583900631505386, 48.898441034062756], [2.3516934796371, 48.89837799137393], [2.3450545241806258, 48.89807207348968], [2.3381825237286495, 48.897863424530414], [2.3295638459854024, 48.89771656108591], [2.3248455273300745, 48.897627101917976], [2.318697253843428, 48.89632423964413], [2.3141767587052646, 48.894688648692544], [2.3030324129038307, 48.88966901512059]], [[2.358459478922367, 48.89834248111346], [2.3636279086822087, 48.89844200099648], [2.3689193307790544, 48.89852395957642], [2.3733919699097723, 48.89750423836571], [2.3804708399279226, 48.89867420358864], [2.3865009944320703, 48.89741922608639], [2.3950811622314045, 48.89736394796987], [2.397644770882582, 48.89388752639321], [2.3955871164568054, 48.889029830075266], [2.3966836324049425, 48.88502438214547], [2.4011523530409966, 48.87945300932185], [2.406897140162137, 48.87667570207763], [2.408513529476805, 48.872411874653075], [2.4088693750122006, 48.86748527523941], [2.408765768865789, 48.86340176471023], [2.4096101336179307, 48.858657404919875], [2.4106692374948193, 48.85298774851907], [2.4096283755134005, 48.84742462692587]], [[2.4096294961774425, 48.847325703571016], [2.410819038635312, 48.85299747973053], [2.4097457105651214, 48.858721027828636], [2.408875014954352, 48.86338431754405], [2.4090192175057994, 48.86749500857692], [2.408738694818512, 48.87179244694016], [2.407046599200534, 48.876721408971456], [2.4012745460995935, 48.87949858689952], [2.396819678860734, 48.88505204731925], [2.3957504466943305, 48.88905763403042], [2.397794479232845, 48.89391525883582], [2.3950936519984656, 48.89746293559589], [2.3864592292211495, 48.89749095730542], [2.380442597848103, 48.898754995770666], [2.373377140155362, 48.89760308551223], [2.368890634791775, 48.89864071936045], [2.363613279976056, 48.8985228616988], [2.3583900631505386, 48.898441034062756], [2.3516934796371, 48.89837799137393], [2.3450545241806258, 48.89807207348968], [2.3381825237286495, 48.897863424530414], [2.3295638459854024, 48.89771656108591], [2.3248455273300745, 48.897627101917976], [2.318697253843428, 48.89632423964413], [2.3141767587052646, 48.894688648692544], [2.303128593874889, 48.889615615175025]], [[2.4096294961774425, 48.847325703571016], [2.410819038635312, 48.85299747973053], [2.4097457105651214, 48.858721027828636], [2.408875014954352, 48.86338431754405], [2.4090192175057994, 48.86749500857692], [2.408738694818512, 48.87179244694016], [2.407046599200534, 48.876721408971456], [2.4012745460995935, 48.87949858689952], [2.396819678860734, 48.88505204731925], [2.3957504466943305, 48.88905763403042], [2.397794479232845, 48.89391525883582], [2.3950936519984656, 48.89746293559589], [2.3864592292211495, 48.89749095730542], [2.380442597848103, 48.898754995770666], [2.373377140155362, 48.89760308551223], [2.368890634791775, 48.89864071936045], [2.363613279976056, 48.8985228616988], [2.3583900631505386, 48.898441034062756], [2.3516934796371, 48.89837799137393], [2.3450545241806258, 48.89807207348968], [2.3381825237286495, 48.897863424530414], [2.3295638459854024, 48.89771656108591], [2.3248455273300745, 48.897627101917976], [2.318697253843428, 48.89632423964413], [2.3141767587052646, 48.894688648692544], [2.3030324129038307, 48.88966901512059], [2.2968164352852605, 48.88742931300661], [2.291994963614582, 48.88597096158269], [2.288453177914627, 48.88369263626842], [2.285459684787077, 48.88122861239746], [2.2837326845388546, 48.87790872414125], [2.2780670919239996, 48.87448416999379], [2.274893044078303, 48.87037296112415]], [[2.303128593874889, 48.889615615175025], [2.314314444573612, 48.89459051151927], [2.3188481036182034, 48.89626214519957], [2.324915588556141, 48.89748360561324], [2.3298516567126035, 48.897610253568644], [2.3381973060628405, 48.89777357433254], [2.3451100992447147, 48.89799143877971], [2.351721766125652, 48.89829720594876], [2.358459478922367, 48.89834248111346], [2.3636279086822087, 48.89844200099648], [2.3689193307790544, 48.89852395957642], [2.3733919699097723, 48.89750423836571], [2.3804708399279226, 48.89867420358864], [2.3865009944320703, 48.89741922608639], [2.3950811622314045, 48.89736394796987], [2.397644770882582, 48.89388752639321], [2.3955871164568054, 48.889029830075266]]], "type": "MultiLineString"}, "properties": {"route_id": "IDFM:C01679", "route_short_name": "T3b", "route_long_name": "T3b", "route_type": "Tram", "route_color": "00AE41", "route_url": null, "id_ilico": "C01679", "operatorname": "RATP", "networkname": null, "url": "https://www.ratp.fr/sites/default/files/lines-assets/plan-de-ligne/tram/plan-de-ligne_tram_ligne-t3b.pdf", "long_name_first": "T", "geo_point_2d": {"lon": 2.356022636916852, "lat": 48.88909033114141}}}, {"type": "Feature", "geometry": {"coordinates": [[[2.371672327475938, 48.71448743246356], [2.368322986536, 48.729571616306195], [2.3715660843582294, 48.73349234197916], [2.369982657031674, 48.738511893495435], [2.3595069186987048, 48.74002118038836], [2.352849598393902, 48.74172120277371], [2.352883938486683, 48.746632333280374], [2.354444784134944, 48.75019355837689], [2.3553000637375106, 48.752527714710325], [2.3620163305782853, 48.75278864475148], [2.3684301777519883, 48.7566902914413], [2.366381339786971, 48.75962056877212], [2.3678192066888246, 48.76333382151934], [2.3681004100826413, 48.768201183107806], [2.3678767059851387, 48.772067499844496], [2.367466444252223, 48.778972831519006], [2.3672374121860154, 48.78327079902779], [2.367011615613775, 48.78729894568862]], [[2.366875621605191, 48.7872892311756], [2.3670756282488945, 48.78314402497237], [2.3673446251578003, 48.778918221808496], [2.3677409694016562, 48.77203979899573], [2.3679643567261746, 48.76820046329727], [2.367709829472114, 48.763378213742165], [2.366382322204741, 48.7595396255455], [2.368321359060268, 48.75668971589999], [2.3619203520174077, 48.75285109222686], [2.355217345676027, 48.752617211452076], [2.3543356455001314, 48.75021995135073], [2.3527755868234195, 48.746595768446504], [2.352727658537549, 48.741684564028205], [2.3594944237431474, 48.739931169050436], [2.3698303703953347, 48.73873595049087], [2.371192271245693, 48.73404803036111], [2.3682008466272535, 48.72955298083611], [2.371672327475938, 48.71448743246356]], [[2.367466444252223, 48.778972831519006], [2.3672374121860154, 48.78327079902779], [2.367011615613775, 48.78729894568862]], [[2.3677409694016562, 48.77203979899573], [2.3679643567261746, 48.76820046329727], [2.367709829472114, 48.763378213742165], [2.366382322204741, 48.7595396255455], [2.368321359060268, 48.75668971589999], [2.3619203520174077, 48.75285109222686], [2.355217345676027, 48.752617211452076], [2.3543356455001314, 48.75021995135073], [2.3527755868234195, 48.746595768446504], [2.352727658537549, 48.741684564028205], [2.3594944237431474, 48.739931169050436], [2.3698303703953347, 48.73873595049087], [2.371192271245693, 48.73404803036111], [2.3682008466272535, 48.72955298083611], [2.371713317831807, 48.71446965907271]], [[2.371713317831807, 48.71446965907271], [2.368322986536, 48.729571616306195], [2.3715660843582294, 48.73349234197916], [2.369982657031674, 48.738511893495435], [2.3595069186987048, 48.74002118038836], [2.352849598393902, 48.74172120277371], [2.352883938486683, 48.746632333280374], [2.354444784134944, 48.75019355837689], [2.3553000637375106, 48.752527714710325], [2.3620163305782853, 48.75278864475148], [2.3684301777519883, 48.7566902914413], [2.366381339786971, 48.75962056877212], [2.3678192066888246, 48.76333382151934], [2.3681004100826413, 48.768201183107806], [2.3678767059851387, 48.772067499844496], [2.367466444252223, 48.778972831519006], [2.3672374121860154, 48.78327079902779], [2.367011615613775, 48.78729894568862]], [[2.3677409694016562, 48.77203979899573], [2.3679643567261746, 48.76820046329727], [2.367709829472114, 48.763378213742165], [2.366382322204741, 48.7595396255455], [2.368321359060268, 48.75668971589999], [2.3619203520174077, 48.75285109222686], [2.355217345676027, 48.752617211452076], [2.3543356455001314, 48.75021995135073], [2.3527755868234195, 48.746595768446504], [2.352727658537549, 48.741684564028205], [2.3594944237431474, 48.739931169050436], [2.3698303703953347, 48.73873595049087], [2.371192271245693, 48.73404803036111], [2.3682008466272535, 48.72955298083611], [2.371672327475938, 48.71448743246356]]], "type": "MultiLineString"}, "properties": {"route_id": "IDFM:C01774", "route_short_name": "T7", "route_long_name": "T7", "route_type": "Tram", "route_color": "704B1C", "route_url": null, "id_ilico": "C01774", "operatorname": "RATP", "networkname": null, "url": "https://www.ratp.fr/sites/default/files/lines-assets/fiche-horaire/tram/fiche-horaire_tram_ligne-t7.pdf", "long_name_first": "T", "geo_point_2d": {"lon": 2.3645937462529143, "lat": 48.74795204005104}}}, {"type": "Feature", "geometry": {"coordinates": [[[2.2576829515968564, 48.7253189473246], [2.2726765210350672, 48.723504400268936], [2.2808016818526604, 48.70802879952352], [2.2939520027613325, 48.70239567385033], [2.307099110457053, 48.700889681819284], [2.3173195266960644, 48.68619709283594], [2.332847217178883, 48.67660645389401], [2.33524625399574, 48.67059322879169]], [[2.2576829515968564, 48.7253189473246], [2.2726765210350672, 48.723504400268936], [2.2808016818526604, 48.70802879952352], [2.2939520027613325, 48.70239567385033], [2.307099110457053, 48.700889681819284], [2.3173195266960644, 48.68619709283594], [2.332847217178883, 48.67660645389401], [2.33524625399574, 48.67059322879169], [2.3553396144571788, 48.66779819873873], [2.36262193257582, 48.665291775191896], [2.3737138539226508, 48.65869425652456], [2.383308967599923, 48.65215091322678], [2.3956699900896696, 48.6339271237468], [2.407332573437208, 48.625107425425874], [2.415821100604916, 48.62196503646022], [2.4254895141624586, 48.62495351563186]], [[2.2576829515968564, 48.7253189473246], [2.2726765210350672, 48.723504400268936], [2.2808016818526604, 48.70802879952352], [2.2939520027613325, 48.70239567385033], [2.307099110457053, 48.700889681819284], [2.3173195266960644, 48.68619709283594], [2.332847217178883, 48.67660645389401], [2.33524625399574, 48.67059322879169], [2.3553396144571788, 48.66779819873873], [2.36262193257582, 48.665291775191896], [2.3737138539226508, 48.65869425652456], [2.383308967599923, 48.65215091322678], [2.3956699900896696, 48.6339271237468], [2.407332573437208, 48.625107425425874], [2.415821100604916, 48.62196503646022], [2.4254628714315247, 48.62490841088466]], [[2.2576829515968564, 48.7253189473246], [2.2726765210350672, 48.723504400268936], [2.2808016818526604, 48.70802879952352], [2.2939520027613325, 48.70239567385033], [2.307099110457053, 48.700889681819284], [2.3173195266960644, 48.68619709283594], [2.332847217178883, 48.67660645389401], [2.3350562498123173, 48.67058317418974]], [[2.4254895141624586, 48.62495351563186], [2.4157529624879253, 48.62199168806369], [2.407372768852884, 48.62515260172909], [2.395611553345138, 48.634286635455574], [2.3834852329082086, 48.65216981538317], [2.3738083536021946, 48.65873972823692], [2.362702965554391, 48.66532818843938], [2.3553794651902846, 48.66787037413049], [2.335124034931777, 48.67059254723429], [2.3327935799309887, 48.67655218410451], [2.317238375535632, 48.686169643597474], [2.306909120836024, 48.70087058852854], [2.2939119675231785, 48.7023414681856], [2.2807479426245516, 48.70798350178886], [2.272581491386336, 48.723494826435875], [2.2576829515968564, 48.7253189473246]], [[2.4254628714315247, 48.62490841088466], [2.4157529624879253, 48.62199168806369], [2.407372768852884, 48.62515260172909], [2.395611553345138, 48.634286635455574], [2.3834852329082086, 48.65216981538317], [2.3738083536021946, 48.65873972823692], [2.362702965554391, 48.66532818843938], [2.3553794651902846, 48.66787037413049], [2.335124034931777, 48.67059254723429], [2.3327935799309887, 48.67655218410451], [2.317238375535632, 48.686169643597474], [2.306909120836024, 48.70087058852854], [2.2939119675231785, 48.7023414681856], [2.2807479426245516, 48.70798350178886], [2.272581491386336, 48.723494826435875], [2.2576829515968564, 48.7253189473246]], [[2.33524625399574, 48.67059322879169], [2.3553396144571788, 48.66779819873873], [2.36262193257582, 48.665291775191896], [2.3737138539226508, 48.65869425652456], [2.383308967599923, 48.65215091322678], [2.3956699900896696, 48.6339271237468], [2.407332573437208, 48.625107425425874], [2.415821100604916, 48.62196503646022], [2.4254628714315247, 48.62490841088466]], [[2.4254895141624586, 48.62495351563186], [2.4157529624879253, 48.62199168806369], [2.407372768852884, 48.62515260172909], [2.395611553345138, 48.634286635455574], [2.3834852329082086, 48.65216981538317], [2.3738083536021946, 48.65873972823692], [2.362702965554391, 48.66532818843938], [2.3553794651902846, 48.66787037413049], [2.335124034931777, 48.67059254723429]], [[2.4254895141624586, 48.62495351563186], [2.4157529624879253, 48.62199168806369], [2.407372768852884, 48.62515260172909], [2.395611553345138, 48.634286635455574], [2.3834852329082086, 48.65216981538317], [2.3738083536021946, 48.65873972823692], [2.362702965554391, 48.66532818843938], [2.3553794651902846, 48.66787037413049], [2.3350562498123173, 48.67058317418974]], [[2.4254895141624586, 48.62495351563186], [2.4157529624879253, 48.62199168806369], [2.407372768852884, 48.62515260172909], [2.395611553345138, 48.634286635455574], [2.3834852329082086, 48.65216981538317], [2.3738083536021946, 48.65873972823692], [2.362702965554391, 48.66532818843938], [2.3553794651902846, 48.66787037413049], [2.3351369859286857, 48.67064209187908]], [[2.4254628714315247, 48.62490841088466], [2.4157529624879253, 48.62199168806369], [2.407372768852884, 48.62515260172909], [2.395611553345138, 48.634286635455574], [2.3834852329082086, 48.65216981538317], [2.3738083536021946, 48.65873972823692], [2.362702965554391, 48.66532818843938], [2.3553794651902846, 48.66787037413049], [2.3350562498123173, 48.67058317418974]], [[2.2576829515968564, 48.7253189473246], [2.2726765210350672, 48.723504400268936], [2.2808016818526604, 48.70802879952352], [2.2939520027613325, 48.70239567385033], [2.307099110457053, 48.700889681819284], [2.3173195266960644, 48.68619709283594], [2.332847217178883, 48.67660645389401], [2.3351369859286857, 48.67064209187908]]], "type": "MultiLineString"}, "properties": {"route_id": "IDFM:C02529", "route_short_name": "T12", "route_long_name": "T12", "route_type": "Tram", "route_color": "A50034", "route_url": null, "id_ilico": "C02529", "operatorname": "SNCF", "networkname": "Transilien", "url": "https://www.transilien.com/fr/page-lignes/tramway-t12", "long_name_first": "T", "geo_point_2d": {"lon": 2.3461497120524526, "lat": 48.67052761274018}}}, {"type": "Feature", "geometry": {"coordinates": [[[2.3651093131296355, 48.81946912322122], [2.368276374859964, 48.81549264502201], [2.370571320300874, 48.81265370236395], [2.374816625508716, 48.80726167021094], [2.377777881154749, 48.80329282241969], [2.3814388386870005, 48.798832845790145], [2.3861926273210377, 48.79284038892166], [2.388057013379568, 48.790565474335686], [2.3919526005440157, 48.78567462213213], [2.393724871435947, 48.78308434646516], [2.3963352252769674, 48.77861851256973], [2.399393905543155, 48.77299461822559], [2.4028211412784803, 48.768397800176395], [2.405757099348053, 48.76387937297847], [2.408761583192876, 48.75927125525871], [2.411835268413899, 48.75451048437987], [2.416894665176663, 48.75214281888013], [2.4162591214889795, 48.74694100511824], [2.4086095847731377, 48.745068516359545]], [[2.416962470398787, 48.752161138532664], [2.411903074935481, 48.75452880686754], [2.4088294966633867, 48.75928058568415], [2.4058114140142677, 48.76388863739736], [2.4028754601253026, 48.76840706589385], [2.3994346219356824, 48.773003817060946], [2.396376049546435, 48.77861871883316], [2.3937654902147045, 48.78310254068291], [2.392020440579232, 48.78569295540971], [2.3887464240152285, 48.78981350576979], [2.3862332510685254, 48.79285858554383], [2.3815065855064894, 48.79886017822017], [2.377859246357863, 48.80332022767745], [2.3748975641912837, 48.80732505068007], [2.3706933301011173, 48.8126993138848], [2.368330409802912, 48.81552890581726], [2.3652042061445444, 48.81950560222635]], [[2.4086234896925025, 48.74504160219203], [2.416286723353616, 48.746905162756086], [2.416962470398787, 48.752161138532664], [2.411903074935481, 48.75452880686754], [2.4088294966633867, 48.75928058568415], [2.4058114140142677, 48.76388863739736], [2.4028754601253026, 48.76840706589385], [2.3994346219356824, 48.773003817060946], [2.396376049546435, 48.77861871883316], [2.3937654902147045, 48.78310254068291], [2.392020440579232, 48.78569295540971], [2.3887464240152285, 48.78981350576979], [2.3862332510685254, 48.79285858554383], [2.3815065855064894, 48.79886017822017], [2.377859246357863, 48.80332022767745], [2.3748975641912837, 48.80732505068007], [2.3706933301011173, 48.8126993138848], [2.368330409802912, 48.81552890581726], [2.3652042061445444, 48.81950560222635]], [[2.3651093131296355, 48.81946912322122], [2.368276374859964, 48.81549264502201], [2.370571320300874, 48.81265370236395], [2.374816625508716, 48.80726167021094], [2.377777881154749, 48.80329282241969], [2.3814388386870005, 48.798832845790145], [2.3861926273210377, 48.79284038892166], [2.388057013379568, 48.790565474335686], [2.3919526005440157, 48.78567462213213], [2.393724871435947, 48.78308434646516], [2.3963352252769674, 48.77861851256973], [2.399393905543155, 48.77299461822559], [2.4028211412784803, 48.768397800176395], [2.405757099348053, 48.76387937297847], [2.408761583192876, 48.75927125525871], [2.411835268413899, 48.75451048437987], [2.416894665176663, 48.75214281888013]]], "type": "MultiLineString"}, "properties": {"route_id": "IDFM:C02317", "route_short_name": "T9", "route_long_name": "T9", "route_type": "Tram", "route_color": "3C91DC", "route_url": null, "id_ilico": "C02317", "operatorname": "Keolis Ouest Val-de-Marne", "networkname": null, "url": "https://ilico.iledefrance-mobilites.fr/uploads/fiches/20250828T153101Z-a83dd04f-a05c-4afe-b292-612902e7be6b.pdf", "long_name_first": "T", "geo_point_2d": {"lon": 2.392573045488876, "lat": 48.7826210527907}}}, {"type": "Feature", "geometry": {"coordinates": [[[2.1686748606512247, 48.80561009622073], [2.1711991185385857, 48.80099564654413], [2.1788820103815865, 48.78517390333494], [2.180634175907669, 48.78193899716747], [2.1913961992214706, 48.78041133277371], [2.1965056630980224, 48.78003206639097], [2.2091153745461254, 48.78134841711339], [2.214444234350852, 48.783569174000206], [2.2199908686470313, 48.78490967437756], [2.2251829010480453, 48.78356733886981], [2.2305618235735856, 48.783377242510845], [2.237100368305561, 48.784858242636766], [2.2400048759245865, 48.78074840684925], [2.2470398600557604, 48.78366210243149], [2.254577527895755, 48.78669543253745], [2.2633606463464826, 48.790275605481305], [2.272708519795419, 48.79444316830182], [2.281986227494856, 48.79985972577238], [2.289075082231418, 48.80417425521201], [2.2943031744221876, 48.80721821660816], [2.3006731060410686, 48.81045749498012]], [[2.300619967640735, 48.81035825086649], [2.294058340581349, 48.80719878309954], [2.2890062736651298, 48.8042278099247], [2.2819172935381395, 48.79992226990009], [2.2726257190335915, 48.794523611181916], [2.2631968070897, 48.79031057194821], [2.2544542669725383, 48.786748628561156], [2.246984255244028, 48.78374269982313], [2.2401112549203135, 48.780919973858374], [2.237099053376046, 48.78494817626303], [2.2312529719033667, 48.78357956408129], [2.2253049825884723, 48.7835951131364], [2.2199893897850744, 48.78500860115217], [2.2143749701705326, 48.78364966674295], [2.209032496556274, 48.781428816835], [2.196517886505121, 48.780122091455084], [2.1915582441503356, 48.780493377956695], [2.1806735896683622, 48.78202921034489], [2.178964233203961, 48.78513849126931], [2.1713756664275206, 48.8010238530518], [2.1689743857162034, 48.80561217889366]], [[2.2091153745461254, 48.78134841711339], [2.214444234350852, 48.783569174000206], [2.2199908686470313, 48.78490967437756], [2.2251829010480453, 48.78356733886981], [2.2305618235735856, 48.783377242510845], [2.237100368305561, 48.784858242636766], [2.2400048759245865, 48.78074840684925], [2.2470398600557604, 48.78366210243149], [2.254577527895755, 48.78669543253745], [2.2633606463464826, 48.790275605481305], [2.272708519795419, 48.79444316830182], [2.281986227494856, 48.79985972577238], [2.289075082231418, 48.80417425521201], [2.2943031744221876, 48.80721821660816], [2.3006731060410686, 48.81045749498012]], [[2.196517886505121, 48.780122091455084], [2.1915582441503356, 48.780493377956695], [2.1806735896683622, 48.78202921034489], [2.178964233203961, 48.78513849126931], [2.1713756664275206, 48.8010238530518], [2.1689743857162034, 48.80561217889366]], [[2.300619967640735, 48.81035825086649], [2.294058340581349, 48.80719878309954], [2.2890062736651298, 48.8042278099247], [2.2819172935381395, 48.79992226990009], [2.2726257190335915, 48.794523611181916], [2.2631968070897, 48.79031057194821], [2.2544542669725383, 48.786748628561156], [2.246984255244028, 48.78374269982313], [2.2401112549203135, 48.780919973858374], [2.237099053376046, 48.78494817626303], [2.2312529719033667, 48.78357956408129], [2.2253049825884723, 48.7835951131364], [2.2199893897850744, 48.78500860115217], [2.2143749701705326, 48.78364966674295], [2.209032496556274, 48.781428816835], [2.196517886505121, 48.780122091455084], [2.1915582441503356, 48.780493377956695], [2.1806735896683622, 48.78202921034489], [2.178964233203961, 48.78513849126931], [2.1713756664275206, 48.8010238530518], [2.1686748606512247, 48.80561009622073]], [[2.1686748606512247, 48.80561009622073], [2.1711991185385857, 48.80099564654413], [2.1788820103815865, 48.78517390333494], [2.180634175907669, 48.78193899716747], [2.1913961992214706, 48.78041133277371], [2.1965056630980224, 48.78003206639097], [2.2091153745461254, 48.78134841711339], [2.214444234350852, 48.783569174000206], [2.2199908686470313, 48.78490967437756], [2.2251829010480453, 48.78356733886981], [2.2305618235735856, 48.783377242510845], [2.237100368305561, 48.784858242636766], [2.2400048759245865, 48.78074840684925], [2.2470398600557604, 48.78366210243149], [2.254577527895755, 48.78669543253745], [2.2633606463464826, 48.790275605481305], [2.272708519795419, 48.79444316830182], [2.281986227494856, 48.79985972577238], [2.289075082231418, 48.80417425521201], [2.2943031744221876, 48.80721821660816], [2.300619967640735, 48.81035825086649]], [[2.196517886505121, 48.780122091455084], [2.1915582441503356, 48.780493377956695], [2.1806735896683622, 48.78202921034489], [2.178964233203961, 48.78513849126931], [2.1713756664275206, 48.8010238530518], [2.1686748606512247, 48.80561009622073]]], "type": "MultiLineString"}, "properties": {"route_id": "IDFM:C01794", "route_short_name": "T6", "route_long_name": "T6", "route_type": "Tram", "route_color": "E2231A", "route_url": null, "id_ilico": "C01794", "operatorname": "RATP", "networkname": null, "url": "https://www.ratp.fr/sites/default/files/lines-assets/plan-de-ligne/tram/plan-de-ligne_tram_ligne-t6.pdf", "long_name_first": "T", "geo_point_2d": {"lon": 2.2285969523988602, "lat": 48.78972843062244}}}, {"type": "Feature", "geometry": {"coordinates": [[[2.2768930061836286, 48.83334931541997], [2.2713962692816696, 48.83479093594566], [2.2629936072265964, 48.82974789798076], [2.260435260711393, 48.82475851142358], [2.2512735274005227, 48.82154464722343], [2.2386541208761, 48.81922547935567], [2.23151530715405, 48.82213881223653], [2.22543668443778, 48.82881803031778], [2.221873583627301, 48.843023112037265], [2.22123848408167, 48.84996213744435], [2.2206381814898353, 48.857297064253984], [2.2214851676636975, 48.868112880804894], [2.2260155608818444, 48.876074543399874], [2.2334552507390657, 48.88288548625146], [2.237534402345929, 48.89300209833647], [2.2401246099529146, 48.896822734160914], [2.239630602789375, 48.90262925365679], [2.238466500167037, 48.90760410767097], [2.2342048177612432, 48.910733551902645], [2.229667229917251, 48.91403193518481], [2.224632386054727, 48.91769564209479], [2.217615291752479, 48.92336065929193]], [[2.217520042522579, 48.92334205110835], [2.224785553203926, 48.91748979096629], [2.2298623604927506, 48.91375440154659], [2.2340421678368707, 48.910660566492425], [2.2383307423844765, 48.907558278449365], [2.239494331449759, 48.9026193952111], [2.2399884849947362, 48.89680388376041], [2.237383596838505, 48.8930550980173], [2.233221865294192, 48.88299191277544], [2.2258920592837224, 48.87612770571695], [2.2213761180397262, 48.86811217143994], [2.220474910117483, 48.857278013470946], [2.221116114820213, 48.84994335348533], [2.22177794256949, 48.843040477407804], [2.2252730995722283, 48.82882596459613], [2.231325036095582, 48.82211060754302], [2.238587341846867, 48.81913511485187], [2.2513836421244737, 48.82146439159181], [2.260544985471807, 48.82470522680052], [2.2631035941137103, 48.82967662517859], [2.271398029105086, 48.834665033908735], [2.27681264536782, 48.833249898033536]], [[2.224632386054727, 48.91769564209479], [2.217615291752479, 48.92336065929193]], [[2.2513836421244737, 48.82146439159181], [2.260544985471807, 48.82470522680052], [2.2631035941137103, 48.82967662517859], [2.271398029105086, 48.834665033908735], [2.27681264536782, 48.833249898033536]], [[2.2298623604927506, 48.91375440154659], [2.2340421678368707, 48.910660566492425], [2.2383307423844765, 48.907558278449365], [2.239494331449759, 48.9026193952111], [2.2399884849947362, 48.89680388376041], [2.237383596838505, 48.8930550980173], [2.233221865294192, 48.88299191277544], [2.2258920592837224, 48.87612770571695], [2.2213761180397262, 48.86811217143994], [2.220474910117483, 48.857278013470946], [2.221116114820213, 48.84994335348533], [2.22177794256949, 48.843040477407804], [2.2252730995722283, 48.82882596459613], [2.231325036095582, 48.82211060754302], [2.238587341846867, 48.81913511485187], [2.2513836421244737, 48.82146439159181], [2.260544985471807, 48.82470522680052], [2.2631035941137103, 48.82967662517859], [2.271398029105086, 48.834665033908735], [2.27681264536782, 48.833249898033536]], [[2.217520042522579, 48.92334205110835], [2.224785553203926, 48.91748979096629], [2.2298623604927506, 48.91375440154659], [2.2340421678368707, 48.910660566492425], [2.2383307423844765, 48.907558278449365], [2.239494331449759, 48.9026193952111], [2.2399884849947362, 48.89680388376041], [2.237383596838505, 48.8930550980173], [2.233221865294192, 48.88299191277544], [2.2258920592837224, 48.87612770571695], [2.2213761180397262, 48.86811217143994], [2.220474910117483, 48.857278013470946], [2.221116114820213, 48.84994335348533], [2.22177794256949, 48.843040477407804], [2.2252730995722283, 48.82882596459613], [2.231325036095582, 48.82211060754302], [2.238587341846867, 48.81913511485187], [2.2513836421244737, 48.82146439159181]], [[2.2768930061836286, 48.83334931541997], [2.2713962692816696, 48.83479093594566], [2.2629936072265964, 48.82974789798076], [2.260435260711393, 48.82475851142358], [2.2512735274005227, 48.82154464722343]], [[2.2512735274005227, 48.82154464722343], [2.2386541208761, 48.81922547935567], [2.23151530715405, 48.82213881223653], [2.22543668443778, 48.82881803031778], [2.221873583627301, 48.843023112037265], [2.22123848408167, 48.84996213744435], [2.2206381814898353, 48.857297064253984], [2.2214851676636975, 48.868112880804894], [2.2260155608818444, 48.876074543399874], [2.2334552507390657, 48.88288548625146], [2.237534402345929, 48.89300209833647], [2.2401246099529146, 48.896822734160914], [2.239630602789375, 48.90262925365679], [2.238466500167037, 48.90760410767097], [2.2342048177612432, 48.910733551902645], [2.229667229917251, 48.91403193518481], [2.224632386054727, 48.91769564209479], [2.217615291752479, 48.92336065929193]]], "type": "MultiLineString"}, "properties": {"route_id": "IDFM:C01390", "route_short_name": "T2", "route_long_name": "T2", "route_type": "Tram", "route_color": "CF009E", "route_url": null, "id_ilico": "C01390", "operatorname": "RATP", "networkname": null, "url": "https://www.ratp.fr/sites/default/files/lines-assets/fiche-horaire/tram/fiche-horaire_tram_ligne-t2.pdf", "long_name_first": "T", "geo_point_2d": {"lon": 2.2360227686911696, "lat": 48.86030679774553}}}, {"type": "Feature", "geometry": {"coordinates": [[[2.809285919946294, 48.90274164027046], [2.8255986508264512, 48.89108472386095], [2.854152348003086, 48.88280440161704], [2.8825308779964818, 48.86352745620305], [2.9051922787891398, 48.859563576644945]], [[2.9051922787891398, 48.859563576644945], [2.8825308779964818, 48.86352745620305], [2.854152348003086, 48.88280440161704], [2.8255986508264512, 48.89108472386095], [2.809285919946294, 48.90274164027046]], [[2.9051922787891398, 48.859563576644945], [2.809285919946294, 48.90274164027046]], [[2.809285919946294, 48.90274164027046], [2.9051922787891398, 48.859563576644945]]], "type": "MultiLineString"}, "properties": {"route_id": "IDFM:C02732", "route_short_name": "T14", "route_long_name": "T14", "route_type": "Tram", "route_color": "00A092", "route_url": null, "id_ilico": "C02732", "operatorname": "STRETTO", "networkname": null, "url": "https://ilico.iledefrance-mobilites.fr/uploads/plans/20250327T142424Z-d8428f4e-50a9-4aa9-9521-5d1ac9ae4eaf.pdf", "long_name_first": "T", "geo_point_2d": {"lon": 2.856811684068432, "lat": 48.8800366853267}}}, {"type": "Feature", "geometry": {"coordinates": [[[2.0738437612886567, 48.799084685334606], [2.0770055279674153, 48.806601357844244], [2.0785366803243126, 48.814734924412924], [2.0747673057541647, 48.836822243484754], [2.061622167810258, 48.841216832443024], [2.0506124421427385, 48.867401076895966], [2.0688326753103112, 48.872346869633176], [2.079081610504488, 48.881042084554146], [2.069983869456418, 48.894920794013856], [2.072877967433932, 48.90320824555232], [2.0816788273095628, 48.91393321731568], [2.095045494221349, 48.9016780302558]], [[2.095222185913237, 48.90171533891691], [2.0816642323152843, 48.91398706552279], [2.0730554490728603, 48.90320062581815], [2.0701067715199954, 48.894912754917016], [2.0791906850874597, 48.881042923550254], [2.0689434997075624, 48.872248800953116], [2.050735118392639, 48.867402049950684], [2.061579515094916, 48.8413154314931], [2.074821796743467, 48.836822664977326], [2.078564708832435, 48.814690169640635], [2.0773050548633556, 48.80660367020067], [2.074185200862928, 48.799024370608734]], [[2.0738437612886567, 48.799084685334606], [2.0770055279674153, 48.806601357844244], [2.0785366803243126, 48.814734924412924], [2.0747673057541647, 48.836822243484754], [2.061622167810258, 48.841216832443024], [2.0506124421427385, 48.867401076895966], [2.0688326753103112, 48.872346869633176], [2.079081610504488, 48.881042084554146], [2.069983869456418, 48.894920794013856], [2.072877967433932, 48.90320824555232], [2.0816788273095628, 48.91393321731568], [2.095222185913237, 48.90171533891691]], [[2.095222185913237, 48.90171533891691], [2.0816642323152843, 48.91398706552279], [2.0730554490728603, 48.90320062581815], [2.0701067715199954, 48.894912754917016], [2.0791906850874597, 48.881042923550254], [2.0689434997075624, 48.872248800953116], [2.050735118392639, 48.867402049950684], [2.061579515094916, 48.8413154314931], [2.074821796743467, 48.836822664977326], [2.078564708832435, 48.814690169640635], [2.0773050548633556, 48.80660367020067], [2.0738437612886567, 48.799084685334606]], [[2.095045494221349, 48.9016780302558], [2.0816642323152843, 48.91398706552279], [2.0730554490728603, 48.90320062581815], [2.0701067715199954, 48.894912754917016], [2.0791906850874597, 48.881042923550254], [2.0689434997075624, 48.872248800953116], [2.050735118392639, 48.867402049950684], [2.061579515094916, 48.8413154314931], [2.074821796743467, 48.836822664977326], [2.078564708832435, 48.814690169640635], [2.0773050548633556, 48.80660367020067], [2.074185200862928, 48.799024370608734]], [[2.074185200862928, 48.799024370608734], [2.0770055279674153, 48.806601357844244], [2.0785366803243126, 48.814734924412924], [2.0747673057541647, 48.836822243484754], [2.061622167810258, 48.841216832443024], [2.0506124421427385, 48.867401076895966], [2.0688326753103112, 48.872346869633176], [2.079081610504488, 48.881042084554146], [2.069983869456418, 48.894920794013856], [2.072877967433932, 48.90320824555232], [2.0816788273095628, 48.91393321731568], [2.095222185913237, 48.90171533891691]], [[2.0770055279674153, 48.806601357844244], [2.0785366803243126, 48.814734924412924], [2.0747673057541647, 48.836822243484754], [2.061622167810258, 48.841216832443024], [2.0506124421427385, 48.867401076895966], [2.0688326753103112, 48.872346869633176], [2.079081610504488, 48.881042084554146], [2.069983869456418, 48.894920794013856], [2.072877967433932, 48.90320824555232], [2.0816788273095628, 48.91393321731568], [2.095045494221349, 48.9016780302558]], [[2.0770055279674153, 48.806601357844244], [2.0785366803243126, 48.814734924412924], [2.0747673057541647, 48.836822243484754], [2.061622167810258, 48.841216832443024], [2.0506124421427385, 48.867401076895966], [2.0688326753103112, 48.872346869633176], [2.079081610504488, 48.881042084554146], [2.069983869456418, 48.894920794013856], [2.072877967433932, 48.90320824555232], [2.0816788273095628, 48.91393321731568], [2.095222185913237, 48.90171533891691]], [[2.0738437612886567, 48.799084685334606], [2.0770055279674153, 48.806601357844244], [2.0785366803243126, 48.814734924412924], [2.0747673057541647, 48.836822243484754], [2.061622167810258, 48.841216832443024], [2.0506124421427385, 48.867401076895966], [2.0688326753103112, 48.872346869633176], [2.079081610504488, 48.881042084554146], [2.069983869456418, 48.894920794013856], [2.072877967433932, 48.90320824555232]]], "type": "MultiLineString"}, "properties": {"route_id": "IDFM:C02344", "route_short_name": "T13", "route_long_name": "T13", "route_type": "Tram", "route_color": "8D653D", "route_url": null, "id_ilico": "C02344", "operatorname": "SNCF", "networkname": "Transilien", "url": "https://www.transilien.com/fr/page-lignes/tramway-t13", "long_name_first": "T", "geo_point_2d": {"lon": 2.0710189645914654, "lat": 48.863627095480794}}}, {"type": "Feature", "geometry": {"coordinates": [[[2.3906824255995547, 48.97717984665593], [2.385065101404375, 48.978563000308895], [2.380247523132252, 48.979302567383094], [2.377478440264173, 48.9766714162375], [2.3722084084835706, 48.97755219236446], [2.3659861231439723, 48.973607721805635], [2.3659376221571997, 48.97086473970564], [2.3629312701804097, 48.965399304705166], [2.3601952566268714, 48.96354125320171]], [[2.3562931195300902, 48.93896122921449], [2.356758582444055, 48.9421651710353], [2.3570670634015802, 48.9448196998411], [2.357516863437206, 48.948194399075575], [2.3580347661176333, 48.95269354033968], [2.358368020340215, 48.95556399635663], [2.358815669177408, 48.95912749038548], [2.3602506568960244, 48.96347860041045], [2.363595286356353, 48.96582548255011], [2.3660471084241474, 48.970847333356595], [2.366122494734763, 48.97362642763888], [2.372182282944555, 48.977453138205156], [2.3774788710389014, 48.97663544849064], [2.3801937385465597, 48.97923034972888], [2.385052292086106, 48.97849099485918], [2.3906283124533076, 48.97713460937024]], [[2.3906824255995547, 48.97717984665593], [2.385065101404375, 48.978563000308895], [2.380247523132252, 48.979302567383094], [2.377478440264173, 48.9766714162375], [2.3722084084835706, 48.97755219236446], [2.3659861231439723, 48.973607721805635], [2.3659376221571997, 48.97086473970564], [2.3629312701804097, 48.965399304705166], [2.3601952566268714, 48.96354125320171], [2.358692660794154, 48.959135825225516], [2.358272439968033, 48.95556348483242], [2.357939191024479, 48.95269302854845], [2.3573939918117484, 48.94819374051071], [2.356944088576183, 48.94482803299838], [2.356636169972587, 48.94212854286052], [2.3562931195300902, 48.93896122921449]], [[2.3906824255995547, 48.97717984665593], [2.385065101404375, 48.978563000308895], [2.380247523132252, 48.979302567383094], [2.377478440264173, 48.9766714162375], [2.3722084084835706, 48.97755219236446], [2.3659861231439723, 48.973607721805635], [2.3659376221571997, 48.97086473970564], [2.3629312701804097, 48.965399304705166], [2.3601952566268714, 48.96354125320171], [2.358692660794154, 48.959135825225516], [2.358272439968033, 48.95556348483242], [2.357939191024479, 48.95269302854845], [2.3573939918117484, 48.94819374051071], [2.356944088576183, 48.94482803299838], [2.356636169972587, 48.94212854286052], [2.356169935832105, 48.93898754608964]], [[2.3602506568960244, 48.96347860041045], [2.363595286356353, 48.96582548255011], [2.3660471084241474, 48.970847333356595], [2.366122494734763, 48.97362642763888], [2.372182282944555, 48.977453138205156], [2.3774788710389014, 48.97663544849064], [2.3801937385465597, 48.97923034972888], [2.385052292086106, 48.97849099485918], [2.3906283124533076, 48.97713460937024]], [[2.358692660794154, 48.959135825225516], [2.358272439968033, 48.95556348483242], [2.357939191024479, 48.95269302854845], [2.3573939918117484, 48.94819374051071], [2.356944088576183, 48.94482803299838], [2.356636169972587, 48.94212854286052], [2.3562931195300902, 48.93896122921449]], [[2.356169935832105, 48.93898754608964], [2.356758582444055, 48.9421651710353], [2.3570670634015802, 48.9448196998411], [2.357516863437206, 48.948194399075575], [2.3580347661176333, 48.95269354033968], [2.358368020340215, 48.95556399635663], [2.358815669177408, 48.95912749038548]], [[2.356169935832105, 48.93898754608964], [2.356758582444055, 48.9421651710353], [2.3570670634015802, 48.9448196998411], [2.357516863437206, 48.948194399075575], [2.3580347661176333, 48.95269354033968], [2.358368020340215, 48.95556399635663], [2.358815669177408, 48.95912749038548], [2.3602506568960244, 48.96347860041045], [2.363595286356353, 48.96582548255011], [2.3660471084241474, 48.970847333356595], [2.366122494734763, 48.97362642763888], [2.372182282944555, 48.977453138205156], [2.3774788710389014, 48.97663544849064], [2.3801937385465597, 48.97923034972888], [2.385052292086106, 48.97849099485918], [2.3906283124533076, 48.97713460937024]], [[2.3562931195300902, 48.93896122921449], [2.356758582444055, 48.9421651710353], [2.3570670634015802, 48.9448196998411], [2.357516863437206, 48.948194399075575], [2.3580347661176333, 48.95269354033968], [2.358368020340215, 48.95556399635663], [2.358815669177408, 48.95912749038548]], [[2.358692660794154, 48.959135825225516], [2.358272439968033, 48.95556348483242], [2.357939191024479, 48.95269302854845], [2.3573939918117484, 48.94819374051071], [2.356944088576183, 48.94482803299838], [2.356636169972587, 48.94212854286052], [2.356169935832105, 48.93898754608964]], [[2.356169935832105, 48.93898754608964], [2.356758582444055, 48.9421651710353], [2.3570670634015802, 48.9448196998411], [2.357516863437206, 48.948194399075575], [2.3580347661176333, 48.95269354033968], [2.358368020340215, 48.95556399635663], [2.358815669177408, 48.95912749038548], [2.3602506568960244, 48.96347860041045], [2.363595286356353, 48.96582548255011], [2.3660471084241474, 48.970847333356595], [2.366122494734763, 48.97362642763888], [2.372182282944555, 48.977453138205156], [2.3774788710389014, 48.97663544849064], [2.3801937385465597, 48.97923034972888], [2.385052292086106, 48.97849099485918], [2.3906824255995547, 48.97717984665593]], [[2.3562931195300902, 48.93896122921449], [2.356758582444055, 48.9421651710353], [2.3570670634015802, 48.9448196998411], [2.357516863437206, 48.948194399075575], [2.3580347661176333, 48.95269354033968], [2.358368020340215, 48.95556399635663], [2.358815669177408, 48.95912749038548], [2.3602506568960244, 48.96347860041045], [2.363595286356353, 48.96582548255011], [2.3660471084241474, 48.970847333356595], [2.366122494734763, 48.97362642763888], [2.372182282944555, 48.977453138205156], [2.3774788710389014, 48.97663544849064], [2.3801937385465597, 48.97923034972888], [2.385052292086106, 48.97849099485918], [2.3906824255995547, 48.97717984665593]]], "type": "MultiLineString"}, "properties": {"route_id": "IDFM:C01684", "route_short_name": "T5", "route_long_name": "T5", "route_type": "Tram", "route_color": "62259D", "route_url": null, "id_ilico": "C01684", "operatorname": "RATP", "networkname": null, "url": "https://www.ratp.fr/sites/default/files/lines-assets/fiche-horaire/tram/fiche-horaire_tram_ligne-t5.pdf", "long_name_first": "T", "geo_point_2d": {"lon": 2.3669553027531576, "lat": 48.964291810607705}}}, {"type": "Feature", "geometry": {"coordinates": [[[2.571651466159315, 49.004768401787345], [2.5705281702484006, 49.010033751278236], [2.560932604571692, 49.00999903551533], [2.5447567771068575, 49.0090125915058], [2.5420550914841895, 49.01312068485388]], [[2.5419320642685617, 49.01312021545428], [2.5447987285131415, 49.00890484551127], [2.5609330606074856, 49.009945084749454], [2.5706784538977776, 49.01004328095331], [2.5715557935079696, 49.00476806029876]]], "type": "MultiLineString"}, "properties": {"route_id": "IDFM:C00563", "route_short_name": "CDG VAL", "route_long_name": "CDG VAL", "route_type": "Tram", "route_color": "5CC5ED", "route_url": null, "id_ilico": "C00563", "operatorname": "ADP", "networkname": null, "url": "https://www.parisaeroport.fr/passagers/acces/paris-charles-de-gaulle/transports-en-commun/cdgval", "long_name_first": "C", "geo_point_2d": {"lon": 2.5576958003996753, "lat": 49.00952160906541}}}, {"type": "Feature", "geometry": {"coordinates": [[[2.482098546104649, 48.893751955637946], [2.4879565369580985, 48.89304870590511], [2.499813160951303, 48.89256822428643], [2.5066422337264713, 48.89729093774296], [2.512006944311881, 48.90265477549249], [2.516548028569006, 48.90721464734951], [2.515170468742955, 48.91596819231036], [2.516385223304965, 48.92180048027322], [2.519166419761055, 48.92651491932228], [2.5148936222347817, 48.931030062759795], [2.496963789365468, 48.93198132034067]], [[2.482098546104649, 48.893751955637946], [2.4879565369580985, 48.89304870590511], [2.499813160951303, 48.89256822428643], [2.5066422337264713, 48.89729093774296], [2.512006944311881, 48.90265477549249], [2.516548028569006, 48.90721464734951], [2.515170468742955, 48.91596819231036], [2.516385223304965, 48.92180048027322], [2.519166419761055, 48.92651491932228], [2.5148936222347817, 48.931030062759795], [2.4963640466453203, 48.931897866512266]], [[2.499813160951303, 48.89256822428643], [2.5066422337264713, 48.89729093774296], [2.512006944311881, 48.90265477549249], [2.516548028569006, 48.90721464734951], [2.5241113732407827, 48.90661542695031], [2.5322797531400685, 48.90850014838546], [2.5391971500447372, 48.90843702868517], [2.5463644784160646, 48.9078708519042], [2.547919803388255, 48.90472020628351], [2.5550422964124544, 48.90454003875491], [2.556014372564688, 48.90092847016551], [2.5617274917506396, 48.897963837074215], [2.570895967406486, 48.90097371848044]], [[2.499813160951303, 48.89256822428643], [2.5066422337264713, 48.89729093774296], [2.512006944311881, 48.90265477549249], [2.516548028569006, 48.90721464734951], [2.5241113732407827, 48.90661542695031], [2.5322797531400685, 48.90850014838546], [2.5391971500447372, 48.90843702868517], [2.5463644784160646, 48.9078708519042], [2.547919803388255, 48.90472020628351], [2.5550422964124544, 48.90454003875491], [2.556014372564688, 48.90092847016551], [2.5617274917506396, 48.897963837074215], [2.570841702870876, 48.90093755213378]], [[2.482098546104649, 48.893751955637946], [2.4879565369580985, 48.89304870590511], [2.499813160951303, 48.89256822428643], [2.5066422337264713, 48.89729093774296], [2.512006944311881, 48.90265477549249], [2.516548028569006, 48.90721464734951], [2.5241113732407827, 48.90661542695031], [2.5322797531400685, 48.90850014838546], [2.5391971500447372, 48.90843702868517], [2.5463644784160646, 48.9078708519042], [2.547919803388255, 48.90472020628351], [2.5550422964124544, 48.90454003875491], [2.556014372564688, 48.90092847016551], [2.5617274917506396, 48.897963837074215], [2.570841702870876, 48.90093755213378]], [[2.482098546104649, 48.893751955637946], [2.4879565369580985, 48.89304870590511], [2.499813160951303, 48.89256822428643], [2.5066422337264713, 48.89729093774296], [2.512006944311881, 48.90265477549249], [2.516548028569006, 48.90721464734951], [2.5241113732407827, 48.90661542695031], [2.5322797531400685, 48.90850014838546], [2.5391971500447372, 48.90843702868517], [2.5463644784160646, 48.9078708519042], [2.547919803388255, 48.90472020628351], [2.5550422964124544, 48.90454003875491], [2.556014372564688, 48.90092847016551], [2.5617274917506396, 48.897963837074215], [2.570895967406486, 48.90097371848044]], [[2.570841702870876, 48.90093755213378], [2.56172809739115, 48.89789189520736], [2.5561234945096047, 48.900928874629386], [2.555041681454517, 48.904611980150186], [2.5479602585141476, 48.90477431674464], [2.5464189682631786, 48.907880051184826], [2.5391967519797514, 48.90848199184545], [2.532333917960648, 48.90854532457516], [2.524056559758779, 48.9066421880598], [2.5164385595960947, 48.90725017733822], [2.511897313188358, 48.90270828680124], [2.5065734409130265, 48.89735360569665], [2.4997443661584247, 48.89263088858735]], [[2.570895967406486, 48.90097371848044], [2.56172809739115, 48.89789189520736], [2.5561234945096047, 48.900928874629386], [2.555041681454517, 48.904611980150186], [2.5479602585141476, 48.90477431674464], [2.5464189682631786, 48.907880051184826], [2.5391967519797514, 48.90848199184545], [2.532333917960648, 48.90854532457516], [2.524056559758779, 48.9066421880598], [2.5164385595960947, 48.90725017733822], [2.511897313188358, 48.90270828680124], [2.5065734409130265, 48.89735360569665], [2.4997443661584247, 48.89263088858735]], [[2.570841702870876, 48.90093755213378], [2.56172809739115, 48.89789189520736], [2.5561234945096047, 48.900928874629386], [2.555041681454517, 48.904611980150186], [2.5479602585141476, 48.90477431674464], [2.5464189682631786, 48.907880051184826], [2.5391967519797514, 48.90848199184545], [2.532333917960648, 48.90854532457516], [2.524056559758779, 48.9066421880598], [2.5164385595960947, 48.90725017733822], [2.511897313188358, 48.90270828680124], [2.5065734409130265, 48.89735360569665], [2.4997443661584247, 48.89263088858735], [2.487969467567442, 48.89312070600031], [2.482193298612344, 48.893824310177635]], [[2.570895967406486, 48.90097371848044], [2.56172809739115, 48.89789189520736], [2.5561234945096047, 48.900928874629386], [2.555041681454517, 48.904611980150186], [2.5479602585141476, 48.90477431674464], [2.5464189682631786, 48.907880051184826], [2.5391967519797514, 48.90848199184545], [2.532333917960648, 48.90854532457516], [2.524056559758779, 48.9066421880598], [2.5164385595960947, 48.90725017733822], [2.511897313188358, 48.90270828680124], [2.5065734409130265, 48.89735360569665], [2.4997443661584247, 48.89263088858735], [2.487969467567442, 48.89312070600031], [2.482193298612344, 48.893824310177635]], [[2.496963789365468, 48.93198132034067], [2.5148669130183867, 48.930967005263184], [2.5190574106987182, 48.926496496259446], [2.5162894528120816, 48.92182707221902], [2.5150341111104293, 48.91595864752934], [2.5163974669176747, 48.9072679973711], [2.511897313188358, 48.90270828680124], [2.5065734409130265, 48.89735360569665], [2.4997443661584247, 48.89263088858735]], [[2.496963789365468, 48.93198132034067], [2.5148669130183867, 48.930967005263184], [2.5190574106987182, 48.926496496259446], [2.5162894528120816, 48.92182707221902], [2.5150341111104293, 48.91595864752934], [2.5163974669176747, 48.9072679973711], [2.511897313188358, 48.90270828680124], [2.5065734409130265, 48.89735360569665], [2.4997443661584247, 48.89263088858735], [2.487969467567442, 48.89312070600031], [2.482193298612344, 48.893824310177635]], [[2.4963640466453203, 48.931897866512266], [2.5148669130183867, 48.930967005263184], [2.5190574106987182, 48.926496496259446], [2.5162894528120816, 48.92182707221902], [2.5150341111104293, 48.91595864752934], [2.5163974669176747, 48.9072679973711], [2.511897313188358, 48.90270828680124], [2.5065734409130265, 48.89735360569665], [2.4997443661584247, 48.89263088858735], [2.487969467567442, 48.89312070600031], [2.482193298612344, 48.893824310177635]], [[2.499813160951303, 48.89256822428643], [2.5066422337264713, 48.89729093774296], [2.512006944311881, 48.90265477549249], [2.516548028569006, 48.90721464734951], [2.515170468742955, 48.91596819231036], [2.516385223304965, 48.92180048027322], [2.519166419761055, 48.92651491932228], [2.5148936222347817, 48.931030062759795], [2.4963640466453203, 48.931897866512266]], [[2.482098546104649, 48.893751955637946], [2.4879565369580985, 48.89304870590511], [2.499813160951303, 48.89256822428643], [2.5066422337264713, 48.89729093774296], [2.512006944311881, 48.90265477549249], [2.516548028569006, 48.90721464734951], [2.5241113732407827, 48.90661542695031], [2.5322797531400685, 48.90850014838546], [2.5391971500447372, 48.90843702868517], [2.5463644784160646, 48.9078708519042], [2.547919803388255, 48.90472020628351], [2.5550422964124544, 48.90454003875491], [2.556014372564688, 48.90092847016551], [2.56172809739115, 48.89789189520736]], [[2.56172809739115, 48.89789189520736], [2.5561234945096047, 48.900928874629386], [2.555041681454517, 48.904611980150186], [2.5479602585141476, 48.90477431674464], [2.5464189682631786, 48.907880051184826], [2.5391967519797514, 48.90848199184545], [2.532333917960648, 48.90854532457516], [2.524056559758779, 48.9066421880598], [2.5164385595960947, 48.90725017733822], [2.511897313188358, 48.90270828680124], [2.5065734409130265, 48.89735360569665], [2.4997443661584247, 48.89263088858735], [2.487969467567442, 48.89312070600031], [2.482193298612344, 48.893824310177635]], [[2.4963640466453203, 48.931897866512266], [2.5148669130183867, 48.930967005263184], [2.5190574106987182, 48.926496496259446], [2.5162894528120816, 48.92182707221902], [2.5150341111104293, 48.91595864752934], [2.5163974669176747, 48.9072679973711], [2.511897313188358, 48.90270828680124], [2.5065734409130265, 48.89735360569665], [2.4997443661584247, 48.89263088858735]]], "type": "MultiLineString"}, "properties": {"route_id": "IDFM:C01843", "route_short_name": "T4", "route_long_name": "T4", "route_type": "Tram", "route_color": "DFAF47", "route_url": null, "id_ilico": "C01843", "operatorname": "STRETTO", "networkname": null, "url": "https://ilico.iledefrance-mobilites.fr/uploads/fiches/20250507T132723Z-4dcbd17c-10ef-4551-8005-521d25eb6733.pdf", "long_name_first": "T", "geo_point_2d": {"lon": 2.5213974780468718, "lat": 48.906331053884706}}}, {"type": "Feature", "geometry": {"coordinates": [[[2.3023393905460323, 48.954621581329654], [2.3282543310234183, 48.95903211760871], [2.342362007854008, 48.96004555875211], [2.3673379697174006, 48.9601799349474], [2.391805313917159, 48.95476706123573], [2.4111403934014755, 48.94394644863184], [2.4234557772724115, 48.93029231335691]], [[2.302421917736917, 48.95457709774762], [2.3282543310234183, 48.95903211760871], [2.342362007854008, 48.96004555875211], [2.3673379697174006, 48.9601799349474], [2.391805313917159, 48.95476706123573], [2.4111403934014755, 48.94394644863184], [2.423319399015921, 48.9302826643256]], [[2.3023393905460323, 48.954621581329654], [2.3282543310234183, 48.95903211760871], [2.342362007854008, 48.96004555875211], [2.3673379697174006, 48.9601799349474], [2.391805313917159, 48.95476706123573], [2.4111403934014755, 48.94394644863184], [2.423319399015921, 48.9302826643256]], [[2.423319399015921, 48.9302826643256], [2.41104524117172, 48.943910010206984], [2.391751538657703, 48.954694847106445], [2.367325080062198, 48.96011691843376], [2.342376459455363, 48.959982689332605], [2.328391696111381, 48.95896993823954], [2.302421917736917, 48.95457709774762]], [[2.423319399015921, 48.9302826643256], [2.41104524117172, 48.943910010206984], [2.391751538657703, 48.954694847106445], [2.367325080062198, 48.96011691843376], [2.342376459455363, 48.959982689332605], [2.328391696111381, 48.95896993823954], [2.3023393905460323, 48.954621581329654]], [[2.302421917736917, 48.95457709774762], [2.3282543310234183, 48.95903211760871], [2.342362007854008, 48.96004555875211], [2.3673379697174006, 48.9601799349474], [2.391805313917159, 48.95476706123573], [2.4111403934014755, 48.94394644863184], [2.4234557772724115, 48.93029231335691]], [[2.4234557772724115, 48.93029231335691], [2.41104524117172, 48.943910010206984], [2.391751538657703, 48.954694847106445], [2.367325080062198, 48.96011691843376], [2.342376459455363, 48.959982689332605], [2.328391696111381, 48.95896993823954], [2.3023393905460323, 48.954621581329654]], [[2.4234557772724115, 48.93029231335691], [2.41104524117172, 48.943910010206984], [2.391751538657703, 48.954694847106445], [2.367325080062198, 48.96011691843376], [2.342376459455363, 48.959982689332605], [2.328391696111381, 48.95896993823954], [2.302421917736917, 48.95457709774762]]], "type": "MultiLineString"}, "properties": {"route_id": "IDFM:C01999", "route_short_name": "T11", "route_long_name": "T11", "route_type": "Tram", "route_color": "F58F53", "route_url": null, "id_ilico": "C01999", "operatorname": "STRETTO", "networkname": null, "url": "https://ilico.iledefrance-mobilites.fr/uploads/plans/20250314T075859Z-7e7e895f-57cb-4cc8-8a9b-43e759a6eb7c.pdf", "long_name_first": "T", "geo_point_2d": {"lon": 2.3661670134124306, "lat": 48.953813715857265}}}]}