{"type":"FeatureCollection","features":[{"type":"Feature","geometry":{"coordinates":[2.201416775175735,48.887772270346645],"type":"Point"},"properties":{"geo_point_2d":{"lon":2.2014167751757348,"lat":48.887772270346645},"objectid":75,"code":"GA26","libelle":"Nanterre La Boule","connex":"Non","ligne":"L15","x":1641468.8149,"y":8187816.5863,"producteur":"SGP","moa":null,"date_diffu":"2016-12-15"}},{"type":"Feature","geometry":{"coordinates":[2.366468603793765,48.76021877294793],"type":"Point"},"properties":{"geo_point_2d":{"lon":2.3664686037937646,"lat":48.76021877294793},"objectid":81,"code":"GA44","libelle":"M.I.N. Porte de Thiais","connex":"Non","ligne":"L14","x":1653425.3615,"y":8173531.0873,"producteur":"SGP","moa":"RATP","date_diffu":"2016-12-15"}},{"type":"Feature","geometry":{"coordinates":[2.487856647474563,48.9518377411633],"type":"Point"},"properties":{"geo_point_2d":{"lon":2.4878566474745627,"lat":48.9518377411633},"objectid":86,"code":"GA03","libelle":"Aulnay","connex":"Non","ligne":"L16","x":1662492.9079,"y":8194770.8834,"producteur":"SGP","moa":null,"date_diffu":"2016-12-15"}},{"type":"Feature","geometry":{"coordinates":[2.173294535262749,48.71215046782793],"type":"Point"},"properties":{"geo_point_2d":{"lon":2.173294535262749,"lat":48.71215046782793},"objectid":90,"code":"GA51","libelle":"Orsay - Gif","connex":"Non","ligne":"L18","x":1639164.9817,"y":8168319.3017,"producteur":"SGP","moa":null,"date_diffu":"2016-12-15"}},{"type":"Feature","geometry":{"coordinates":[2.354364943688198,48.775313612845096],"type":"Point"},"properties":{"geo_point_2d":{"lon":2.354364943688198,"lat":48.775313612845096},"objectid":93,"code":"GA43","libelle":"Chevilly \"Trois Communes\"","connex":"Non","ligne":"L14","x":1652549.846,"y":8175217.019,"producteur":"SGP","moa":"RATP","date_diffu":"2016-12-15"}},{"type":"Feature","geometry":{"coordinates":[2.349750100283341,48.80981003182065],"type":"Point"},"properties":{"geo_point_2d":{"lon":2.3497501002833405,"lat":48.80981003182065},"objectid":97,"code":"GA42","libelle":"Kremlin-Bic\u00eatre H\u00f4pital","connex":"Non","ligne":"L14","x":1652243.5478,"y":8179055.6699,"producteur":"SGP","moa":"RATP","date_diffu":"2016-12-15"}},{"type":"Feature","geometry":{"coordinates":[2.384490757960263,48.92925178722475],"type":"Point"},"properties":{"geo_point_2d":{"lon":2.384490757960263,"lat":48.92925178722475},"objectid":109,"code":"GA34","libelle":"La Courneuve \"Six Routes\"","connex":"Non","ligne":"L16\/L17","x":1654902.6408,"y":8192315.65,"producteur":"SGP","moa":null,"date_diffu":"2016-12-15"}},{"type":"Feature","geometry":{"coordinates":[2.273535625123068,48.81406795963954],"type":"Point"},"properties":{"geo_point_2d":{"lon":2.2735356251230683,"lat":48.81406795963954},"objectid":114,"code":"GA21","libelle":"Fort d'Issy - Vanves - Clamart","connex":"Interconnexion","ligne":"L15","x":1646650.8033,"y":8179579.8721,"producteur":"SGP","moa":null,"date_diffu":"2016-12-15"}},{"type":"Feature","geometry":{"coordinates":[2.580787331604637,48.84345531530839],"type":"Point"},"properties":{"geo_point_2d":{"lon":2.580787331604637,"lat":48.84345531530839},"objectid":115,"code":"GA08","libelle":"Noisy - Champs","connex":"Interconnexion","ligne":"L15\/L16","x":1669232.1076,"y":8182677.3608,"producteur":"SGP","moa":null,"date_diffu":"2016-12-15"}},{"type":"Feature","geometry":{"coordinates":[2.387038531128399,48.789990417480524],"type":"Point"},"properties":{"geo_point_2d":{"lon":2.387038531128399,"lat":48.789990417480524},"objectid":121,"code":"GA15","libelle":"Vitry Centre","connex":"Non","ligne":"L15","x":1654976.492,"y":8176818.9414,"producteur":"SGP","moa":null,"date_diffu":"2016-12-15"}},{"type":"Feature","geometry":{"coordinates":[2.315346929414147,48.88923108508915],"type":"Point"},"properties":{"geo_point_2d":{"lon":2.3153469294141473,"lat":48.88923108508915},"objectid":124,"code":"GA60","libelle":"Pont Cardinet","connex":"Interconnexion","ligne":"L14","x":1650206.9711,"y":8187315.8438,"producteur":"SGP","moa":"RATP","date_diffu":"2016-12-15"}},{"type":"Feature","geometry":{"coordinates":[2.3349716579991,48.912879491710584],"type":"Point"},"properties":{"geo_point_2d":{"lon":2.3349716579991004,"lat":48.912879491710584},"objectid":125,"code":"GA63","libelle":"Mairie de Saint-Ouen","connex":"Interconnexion","ligne":"L14","x":1651181.8188,"y":8190438.7951,"producteur":"SGP","moa":null,"date_diffu":"2016-12-15"}},{"type":"Feature","geometry":{"coordinates":[2.481741891048117,48.88273836821721],"type":"Point"},"properties":{"geo_point_2d":{"lon":2.4817418910481175,"lat":48.88273836821721},"objectid":126,"code":"GA71","libelle":"Rosny Bois-Perrier","connex":"Interconnexion","ligne":"L15","x":1661991.1145,"y":8187089.0267,"producteur":"SGP","moa":null,"date_diffu":"2016-12-15"}},{"type":"Feature","geometry":{"coordinates":[2.476356731356169,48.97869567209093],"type":"Point"},"properties":{"geo_point_2d":{"lon":2.476356731356169,"lat":48.97869567209093},"objectid":138,"code":"GA36","libelle":"Triangle de Gonesse","connex":"Interconnexion","ligne":"L17","x":1661671.3191,"y":8197763.1487,"producteur":"SGP","moa":null,"date_diffu":"2016-12-15"}},{"type":"Feature","geometry":{"coordinates":[2.595519467895825,49.02589155154231],"type":"Point"},"properties":{"geo_point_2d":{"lon":2.5955194678958247,"lat":49.02589155154231},"objectid":139,"code":"GA40","libelle":"Le Mesnil-Amelot","connex":"Non","ligne":"L17","x":1670421.4426,"y":8202957.9513,"producteur":"SGP","moa":null,"date_diffu":"2016-12-15"}},{"type":"Feature","geometry":{"coordinates":[2.202130010260176,48.8724809534261],"type":"Point"},"properties":{"geo_point_2d":{"lon":2.2021300102601757,"lat":48.8724809534261},"objectid":74,"code":"GA25","libelle":"Rueil - Suresnes \"Mont-Val\u00e9rien\"","connex":"Non","ligne":"L15","x":1641475.4552,"y":8186127.5458,"producteur":"SGP","moa":null,"date_diffu":"2016-12-15"}},{"type":"Feature","geometry":{"coordinates":[2.237688709843252,48.890854792161804],"type":"Point"},"properties":{"geo_point_2d":{"lon":2.237688709843252,"lat":48.890854792161804},"objectid":77,"code":"GA28","libelle":"La D\u00e9fense","connex":"Interconnexion","ligne":"L15","x":1644100.8771,"y":8188148.2352,"producteur":"SGP","moa":null,"date_diffu":"2016-12-15"}},{"type":"Feature","geometry":{"coordinates":[2.267019144400969,48.90532896314685],"type":"Point"},"properties":{"geo_point_2d":{"lon":2.267019144400969,"lat":48.90532896314685},"objectid":78,"code":"GA29","libelle":"B\u00e9con-les-Bruy\u00e8res","connex":"Interconnexion","ligne":"L15","x":1646275.4684,"y":8189737.4259,"producteur":"SGP","moa":null,"date_diffu":"2016-12-15"}},{"type":"Feature","geometry":{"coordinates":[2.272013509582559,48.914987386561855],"type":"Point"},"properties":{"geo_point_2d":{"lon":2.2720135095825587,"lat":48.914987386561855},"objectid":79,"code":"GA30","libelle":"Bois-Colombes","connex":"Interconnexion","ligne":"L15","x":1646655.7361,"y":8190799.4057,"producteur":"SGP","moa":null,"date_diffu":"2016-12-15"}},{"type":"Feature","geometry":{"coordinates":[2.161383743060809,48.72993425338691],"type":"Point"},"properties":{"geo_point_2d":{"lon":2.161383743060809,"lat":48.72993425338691},"objectid":82,"code":"GA52","libelle":"CEA Saint-Aubin","connex":"Non","ligne":"L18","x":1638342.2844,"y":8170298.2753,"producteur":"SGP","moa":null,"date_diffu":"2016-12-15"}},{"type":"Feature","geometry":{"coordinates":[2.200958583207987,48.715364195739205],"type":"Point"},"properties":{"geo_point_2d":{"lon":2.200958583207987,"lat":48.715364195739205},"objectid":83,"code":"GA50","libelle":"Palaiseau","connex":"Non","ligne":"L18","x":1641205.6479,"y":8168658.504,"producteur":"SGP","moa":null,"date_diffu":"2016-12-15"}},{"type":"Feature","geometry":{"coordinates":[2.422115109237472,48.93058045798289],"type":"Point"},"properties":{"geo_point_2d":{"lon":2.422115109237472,"lat":48.93058045798289},"objectid":88,"code":"GA01","libelle":"Le Bourget RER","connex":"Interconnexion","ligne":"L16\/L17","x":1657660.3854,"y":8192441.725,"producteur":"SGP","moa":null,"date_diffu":"2016-12-15"}},{"type":"Feature","geometry":{"coordinates":[2.346560389198723,48.917682776063074],"type":"Point"},"properties":{"geo_point_2d":{"lon":2.346560389198723,"lat":48.917682776063074},"objectid":92,"code":"GA33","libelle":"Saint-Denis Pleyel","connex":"Interconnexion","ligne":"L14\/L15\/L16\/L17","x":1652112.3334,"y":8191054.774,"producteur":"SGP","moa":null,"date_diffu":"2016-12-15"}},{"type":"Feature","geometry":{"coordinates":[2.349365934059006,48.793044218146704],"type":"Point"},"properties":{"geo_point_2d":{"lon":2.3493659340590063,"lat":48.793044218146704},"objectid":94,"code":"GA17","libelle":"Villejuif Institut Gustave Roussy","connex":"Interconnexion","ligne":"L15\/L14","x":1652199.3562,"y":8177191.6708,"producteur":"SGP","moa":null,"date_diffu":"2016-12-15"}},{"type":"Feature","geometry":{"coordinates":[2.362272557455038,48.728004709002676],"type":"Point"},"properties":{"geo_point_2d":{"lon":2.362272557455038,"lat":48.728004709002676},"objectid":95,"code":"GA46","libelle":"A\u00e9roport d'Orly","connex":"Interconnexion","ligne":"L14\/L18","x":1653089.2194,"y":8169960.375,"producteur":"SGP","moa":"RATP","date_diffu":"2016-12-15"}},{"type":"Feature","geometry":{"coordinates":[2.313045382240965,48.91997329676482],"type":"Point"},"properties":{"geo_point_2d":{"lon":2.3130453822409653,"lat":48.91997329676482},"objectid":99,"code":"GA32","libelle":"Les Gr\u00e9sillons","connex":"Interconnexion","ligne":"L15","x":1649658.2715,"y":8191324.1944,"producteur":"SGP","moa":null,"date_diffu":"2016-12-15"}},{"type":"Feature","geometry":{"coordinates":[2.21713926922927,48.84409144181293],"type":"Point"},"properties":{"geo_point_2d":{"lon":2.21713926922927,"lat":48.84409144181293},"objectid":100,"code":"GA24","libelle":"Saint-Cloud","connex":"Interconnexion","ligne":"L15","x":1642543.8059,"y":8182959.3992,"producteur":"SGP","moa":null,"date_diffu":"2016-12-15"}},{"type":"Feature","geometry":{"coordinates":[2.302360404641418,48.811218369520546],"type":"Point"},"properties":{"geo_point_2d":{"lon":2.3023604046414183,"lat":48.811218369520546},"objectid":101,"code":"GA20","libelle":"Ch\u00e2tillon - Montrouge","connex":"Interconnexion","ligne":"L15","x":1648764.6293,"y":8179243.1644,"producteur":"SGP","moa":null,"date_diffu":"2016-12-15"}},{"type":"Feature","geometry":{"coordinates":[2.367220693260608,48.788467746904445],"type":"Point"},"properties":{"geo_point_2d":{"lon":2.3672206932606077,"lat":48.788467746904445},"objectid":102,"code":"GA16","libelle":"Villejuif Louis Aragon","connex":"Interconnexion","ligne":"L15","x":1653506.8333,"y":8176671.7108,"producteur":"SGP","moa":null,"date_diffu":"2016-12-15"}},{"type":"Feature","geometry":{"coordinates":[2.290814418822005,48.73148661710551],"type":"Point"},"properties":{"geo_point_2d":{"lon":2.290814418822005,"lat":48.73148661710551},"objectid":104,"code":"GA48","libelle":"Massy Op\u00e9ra","connex":"Non","ligne":"L18","x":1647874.8303,"y":8170410.8125,"producteur":"SGP","moa":null,"date_diffu":"2016-12-15"}},{"type":"Feature","geometry":{"coordinates":[2.556591917006502,48.904653215591196],"type":"Point"},"properties":{"geo_point_2d":{"lon":2.5565919170065023,"lat":48.904653215591196},"objectid":108,"code":"GA06","libelle":"Clichy - Montfermeil","connex":"Interconnexion","ligne":"L16","x":1667496.0646,"y":8189492.4228,"producteur":"SGP","moa":null,"date_diffu":"2016-12-15"}},{"type":"Feature","geometry":{"coordinates":[2.328342281414505,48.797457760003816],"type":"Point"},"properties":{"geo_point_2d":{"lon":2.3283422814145047,"lat":48.797457760003816},"objectid":111,"code":"GA18","libelle":"Arcueil - Cachan","connex":"Interconnexion","ligne":"L15","x":1650659.1767,"y":8177695.8757,"producteur":"SGP","moa":null,"date_diffu":"2016-12-15"}},{"type":"Feature","geometry":{"coordinates":[2.259940132799728,48.82109590317722],"type":"Point"},"properties":{"geo_point_2d":{"lon":2.259940132799728,"lat":48.82109590317722},"objectid":113,"code":"GA22","libelle":"Issy RER","connex":"Interconnexion","ligne":"L15","x":1645660.0438,"y":8180370.9667,"producteur":"SGP","moa":null,"date_diffu":"2016-12-15"}},{"type":"Feature","geometry":{"coordinates":[2.449882778338881,48.79543637948505],"type":"Point"},"properties":{"geo_point_2d":{"lon":2.4498827783388815,"lat":48.79543637948505},"objectid":118,"code":"GA12","libelle":"Cr\u00e9teil L'Echat","connex":"Interconnexion","ligne":"L15","x":1659585.8926,"y":8177399.2627,"producteur":"SGP","moa":null,"date_diffu":"2016-12-15"}},{"type":"Feature","geometry":{"coordinates":[2.427072881043244,48.915808577493074],"type":"Point"},"properties":{"geo_point_2d":{"lon":2.427072881043244,"lat":48.915808577493074},"objectid":129,"code":"GA67","libelle":"Drancy - Bobigny","connex":"Interconnexion","ligne":"L15","x":1658011.2206,"y":8190796.4024,"producteur":"SGP","moa":null,"date_diffu":"2016-12-15"}},{"type":"Feature","geometry":{"coordinates":[2.313216033433984,48.89497625011181],"type":"Point"},"properties":{"geo_point_2d":{"lon":2.3132160334339837,"lat":48.89497625011181},"objectid":135,"code":"GA61","libelle":"Porte de Clichy","connex":"Interconnexion","ligne":"L14","x":1649529.1591,"y":8189087.0292,"producteur":"SGP","moa":"RATP","date_diffu":"2016-12-15"}},{"type":"Feature","geometry":{"coordinates":[2.570158255227804,49.00476415290009],"type":"Point"},"properties":{"geo_point_2d":{"lon":2.5701582552278035,"lat":49.00476415290009},"objectid":136,"code":"GA38","libelle":"A\u00e9roport Charles de Gaulle T2","connex":"Interconnexion","ligne":"L17","x":1668553.5632,"y":8200618.802,"producteur":"SGP","moa":null,"date_diffu":"2016-12-15"}},{"type":"Feature","geometry":{"coordinates":[2.515936611094954,48.97478875397175],"type":"Point"},"properties":{"geo_point_2d":{"lon":2.515936611094954,"lat":48.97478875397175},"objectid":140,"code":"GA37","libelle":"Parc des Expositions","connex":"Interconnexion","ligne":"L17","x":1664565.6036,"y":8197309.4809,"producteur":"SGP","moa":null,"date_diffu":"2016-12-15"}},{"type":"Feature","geometry":{"coordinates":[2.469731190920537,48.90426493242581],"type":"Point"},"properties":{"geo_point_2d":{"lon":2.4697311909205366,"lat":48.90426493242581},"objectid":146,"code":"GA69","libelle":"Pont de Bondy","connex":"Non","ligne":"L15","x":1661120.1261,"y":8189501.5983,"producteur":"SGP","moa":null,"date_diffu":"2016-12-15"}},{"type":"Feature","geometry":{"coordinates":[2.226481019311378,48.89823872057046],"type":"Point"},"properties":{"geo_point_2d":{"lon":2.2264810193113775,"lat":48.89823872057046},"objectid":76,"code":"GA27","libelle":"Nanterre La Folie","connex":"Interconnexion","ligne":"L15","x":1643309.0179,"y":8188970.7648,"producteur":"SGP","moa":null,"date_diffu":"2016-12-15"}},{"type":"Feature","geometry":{"coordinates":[2.287632262682482,48.9224665326739],"type":"Point"},"properties":{"geo_point_2d":{"lon":2.287632262682482,"lat":48.9224665326739},"objectid":80,"code":"GA31","libelle":"Les Agnettes","connex":"Interconnexion","ligne":"L15","x":1647760.2223,"y":8191632.5342,"producteur":"SGP","moa":null,"date_diffu":"2016-12-15"}},{"type":"Feature","geometry":{"coordinates":[2.585772676358143,48.8745111251454],"type":"Point"},"properties":{"geo_point_2d":{"lon":2.5857726763581432,"lat":48.8745111251454},"objectid":84,"code":"GA07","libelle":"Chelles","connex":"Interconnexion","ligne":"L16","x":1669616.8435,"y":8186128.6402,"producteur":"SGP","moa":null,"date_diffu":"2016-12-15"}},{"type":"Feature","geometry":{"coordinates":[2.535317667168086,48.9358461366935],"type":"Point"},"properties":{"geo_point_2d":{"lon":2.535317667168086,"lat":48.9358461366935},"objectid":85,"code":"GA05","libelle":"Sevran - Livry","connex":"Interconnexion","ligne":"L16","x":1665957.8107,"y":8192970.3007,"producteur":"SGP","moa":null,"date_diffu":"2016-12-15"}},{"type":"Feature","geometry":{"coordinates":[2.462741944257064,48.94553031004862],"type":"Point"},"properties":{"geo_point_2d":{"lon":2.462741944257064,"lat":48.94553031004862},"objectid":87,"code":"GA02","libelle":"Le Blanc-Mesnil","connex":"Non","ligne":"L16","x":1660662.9601,"y":8194097.9095,"producteur":"SGP","moa":null,"date_diffu":"2016-12-15"}},{"type":"Feature","geometry":{"coordinates":[2.258466492245461,48.725144279073305],"type":"Point"},"properties":{"geo_point_2d":{"lon":2.258466492245461,"lat":48.725144279073305},"objectid":89,"code":"GA49","libelle":"Massy - Palaiseau","connex":"Interconnexion","ligne":"L18","x":1645455.8123,"y":8169715.5781,"producteur":"SGP","moa":null,"date_diffu":"2016-12-15"}},{"type":"Feature","geometry":{"coordinates":[2.359083077508059,48.821423303975116],"type":"Point"},"properties":{"geo_point_2d":{"lon":2.3590830775080587,"lat":48.821423303975116},"objectid":91,"code":"GA41","libelle":"Maison Blanche - Paris XIIIe","connex":"Interconnexion","ligne":"L14","x":1652939.8776,"y":8180341.1588,"producteur":"SGP","moa":"RATP","date_diffu":"2016-12-15"}},{"type":"Feature","geometry":{"coordinates":[2.136758835141177,48.79469286732842],"type":"Point"},"properties":{"geo_point_2d":{"lon":2.136758835141177,"lat":48.79469286732842},"objectid":96,"code":"GA56","libelle":"Versailles Chantiers","connex":"Interconnexion","ligne":"L18","x":1636582.2584,"y":8177530.7246,"producteur":"SGP","moa":null,"date_diffu":"2016-12-15"}},{"type":"Feature","geometry":{"coordinates":[2.071833107885106,48.76012989003143],"type":"Point"},"properties":{"geo_point_2d":{"lon":2.071833107885106,"lat":48.76012989003143},"objectid":98,"code":"GA53","libelle":"Saint-Quentin Est","connex":"Non","ligne":"L18","x":1631744.0964,"y":8173818.2255,"producteur":"SGP","moa":null,"date_diffu":"2016-12-15"}},{"type":"Feature","geometry":{"coordinates":[2.372839696147124,48.74697870091888],"type":"Point"},"properties":{"geo_point_2d":{"lon":2.3728396961471243,"lat":48.74697870091888},"objectid":103,"code":"GA45","libelle":"Pont de Rungis","connex":"Interconnexion","ligne":"L14","x":1653881.5649,"y":8172054.9988,"producteur":"SGP","moa":"RATP","date_diffu":"2016-12-15"}},{"type":"Feature","geometry":{"coordinates":[2.309800492984758,48.735837512762],"type":"Point"},"properties":{"geo_point_2d":{"lon":2.309800492984758,"lat":48.735837512762},"objectid":105,"code":"GA47","libelle":"Antonyp\u00f4le","connex":"Non","ligne":"L18","x":1649250.3259,"y":8170856.4198,"producteur":"SGP","moa":null,"date_diffu":"2016-12-15"}},{"type":"Feature","geometry":{"coordinates":[2.104221584323918,48.78710799746039],"type":"Point"},"properties":{"geo_point_2d":{"lon":2.1042215843239176,"lat":48.78710799746039},"objectid":106,"code":"GA55","libelle":"Satory","connex":"Non","ligne":"L18","x":1634182.0766,"y":8176715.062,"producteur":"SGP","moa":null,"date_diffu":"2016-12-15"}},{"type":"Feature","geometry":{"coordinates":[2.525529362372435,48.94721528907092],"type":"Point"},"properties":{"geo_point_2d":{"lon":2.525529362372435,"lat":48.94721528907092},"objectid":107,"code":"GA04","libelle":"Sevran - Beaudottes","connex":"Interconnexion","ligne":"L16","x":1665248.6394,"y":8194238.9518,"producteur":"SGP","moa":null,"date_diffu":"2016-12-15"}},{"type":"Feature","geometry":{"coordinates":[2.318705804553095,48.80277163560353],"type":"Point"},"properties":{"geo_point_2d":{"lon":2.3187058045530953,"lat":48.80277163560353},"objectid":110,"code":"GA19","libelle":"Bagneux","connex":"Interconnexion","ligne":"L15","x":1649956.5906,"y":8178293.0473,"producteur":"SGP","moa":null,"date_diffu":"2016-12-15"}},{"type":"Feature","geometry":{"coordinates":[2.230479877949556,48.82729138334796],"type":"Point"},"properties":{"geo_point_2d":{"lon":2.2304798779495556,"lat":48.82729138334796},"objectid":112,"code":"GA23","libelle":"Pont de S\u00e8vres","connex":"Interconnexion","ligne":"L15","x":1643503.9382,"y":8181081.3596,"producteur":"SGP","moa":null,"date_diffu":"2016-12-15"}},{"type":"Feature","geometry":{"coordinates":[2.526382835628157,48.82398677047637],"type":"Point"},"properties":{"geo_point_2d":{"lon":2.526382835628157,"lat":48.82398677047637},"objectid":116,"code":"GA09","libelle":"Bry - Villiers - Champigny","connex":"Interconnexion","ligne":"L15","x":1665225.6613,"y":8180536.03,"producteur":"SGP","moa":null,"date_diffu":"2016-12-15"}},{"type":"Feature","geometry":{"coordinates":[2.502041291969573,48.81619956220093],"type":"Point"},"properties":{"geo_point_2d":{"lon":2.5020412919695727,"lat":48.81619956220093},"objectid":117,"code":"GA10","libelle":"Champigny Centre","connex":"Interconnexion","ligne":"L15","x":1663432.7801,"y":8179681.5686,"producteur":"SGP","moa":null,"date_diffu":"2016-12-15"}},{"type":"Feature","geometry":{"coordinates":[2.433004643741948,48.789268680371926],"type":"Point"},"properties":{"geo_point_2d":{"lon":2.433004643741948,"lat":48.789268680371926},"objectid":119,"code":"GA13","libelle":"Le Vert de Maisons","connex":"Interconnexion","ligne":"L15","x":1658340.8487,"y":8176722.5755,"producteur":"SGP","moa":null,"date_diffu":"2016-12-15"}},{"type":"Feature","geometry":{"coordinates":[2.408832223768385,48.78230195637225],"type":"Point"},"properties":{"geo_point_2d":{"lon":2.4088322237683846,"lat":48.78230195637225},"objectid":120,"code":"GA14","libelle":"Les Ardoines","connex":"Interconnexion","ligne":"L15","x":1656537.2498,"y":8175959.8398,"producteur":"SGP","moa":null,"date_diffu":"2016-12-15"}},{"type":"Feature","geometry":{"coordinates":[2.47264879160843,48.80670229751401],"type":"Point"},"properties":{"geo_point_2d":{"lon":2.47264879160843,"lat":48.80670229751401},"objectid":122,"code":"GA11","libelle":"Saint-Maur - Cr\u00e9teil","connex":"Interconnexion","ligne":"L15","x":1661278.2929,"y":8178666.5196,"producteur":"SGP","moa":null,"date_diffu":"2016-12-15"}},{"type":"Feature","geometry":{"coordinates":[2.326603154821043,48.90726993530677],"type":"Point"},"properties":{"geo_point_2d":{"lon":2.326603154821043,"lat":48.90726993530677},"objectid":123,"code":"GA62","libelle":"Saint-Ouen RER","connex":"Interconnexion","ligne":"L14","x":1650639.7349,"y":8189907.3962,"producteur":"SGP","moa":"RATP","date_diffu":"2016-12-15"}},{"type":"Feature","geometry":{"coordinates":[2.480198691610315,48.89425907255966],"type":"Point"},"properties":{"geo_point_2d":{"lon":2.480198691610315,"lat":48.89425907255966},"objectid":127,"code":"GA70","libelle":"Bondy","connex":"Interconnexion","ligne":"L15","x":1661888.2426,"y":8188372.1632,"producteur":"SGP","moa":null,"date_diffu":"2016-12-15"}},{"type":"Feature","geometry":{"coordinates":[2.450070302107365,48.9063086976795],"type":"Point"},"properties":{"geo_point_2d":{"lon":2.4500703021073647,"lat":48.9063086976795},"objectid":128,"code":"GA68","libelle":"Bobigny Pablo Picasso","connex":"Interconnexion","ligne":"L15","x":1659549.9485,"y":8189730.1663,"producteur":"SGP","moa":null,"date_diffu":"2016-12-15"}},{"type":"Feature","geometry":{"coordinates":[2.405437151272412,48.9141633448242],"type":"Point"},"properties":{"geo_point_2d":{"lon":2.405437151272412,"lat":48.9141633448242},"objectid":130,"code":"GA66","libelle":"Fort d'Aubervilliers","connex":"Interconnexion","ligne":"L15","x":1656424.1766,"y":8190625.6529,"producteur":"SGP","moa":null,"date_diffu":"2016-12-15"}},{"type":"Feature","geometry":{"coordinates":[2.489657314427197,48.855918516389075],"type":"Point"},"properties":{"geo_point_2d":{"lon":2.4896573144271974,"lat":48.855918516389075},"objectid":131,"code":"GA73","libelle":"Val de Fontenay","connex":"Interconnexion","ligne":"L15","x":1662570.5577,"y":8184095.1181,"producteur":"SGP","moa":null,"date_diffu":"2016-12-15"}},{"type":"Feature","geometry":{"coordinates":[2.494724556589584,48.83902252159746],"type":"Point"},"properties":{"geo_point_2d":{"lon":2.494724556589584,"lat":48.83902252159746},"objectid":132,"code":"GA74","libelle":"Nogent - Le Perreux","connex":"Interconnexion","ligne":"L15","x":1662916.3491,"y":8182179.6571,"producteur":"SGP","moa":null,"date_diffu":"2016-12-15"}},{"type":"Feature","geometry":{"coordinates":[2.381798513188619,48.91417199706874],"type":"Point"},"properties":{"geo_point_2d":{"lon":2.3817985131886195,"lat":48.91417199706874},"objectid":133,"code":"GA65","libelle":"Mairie d'Aubervilliers","connex":"Interconnexion","ligne":"L15","x":1654691.7338,"y":8190640.4534,"producteur":"SGP","moa":null,"date_diffu":"2016-12-15"}},{"type":"Feature","geometry":{"coordinates":[2.363380364183728,48.918014688780964],"type":"Point"},"properties":{"geo_point_2d":{"lon":2.3633803641837283,"lat":48.918014688780964},"objectid":134,"code":"GA64","libelle":"Stade de France","connex":"Interconnexion","ligne":"L15","x":1653347.5887,"y":8191077.2977,"producteur":"SGP","moa":null,"date_diffu":"2016-12-15"}},{"type":"Feature","geometry":{"coordinates":[2.436410394620141,48.94670230156657],"type":"Point"},"properties":{"geo_point_2d":{"lon":2.4364103946201405,"lat":48.94670230156657},"objectid":137,"code":"GA35","libelle":"Le Bourget A\u00e9roport","connex":"Non","ligne":"L17","x":1658721.7625,"y":8194228.1229,"producteur":"SGP","moa":null,"date_diffu":"2016-12-15"}},{"type":"Feature","geometry":{"coordinates":[2.57115836378901,49.01008009258919],"type":"Point"},"properties":{"geo_point_2d":{"lon":2.5711583637890096,"lat":49.01008009258919},"objectid":141,"code":"GA39","libelle":"A\u00e9roport Charles de Gaulle T4","connex":"Non","ligne":"L17","x":1668630.0678,"y":8201209.5133,"producteur":"SGP","moa":null,"date_diffu":"2016-12-15"}}]}